{"type":"FeatureCollection","features":[{"type":"Feature","properties":{"shape_id":"ONTC:1084","route_id":"ONTC","route_short_name":"ON","route_long_name":"Ontario Northland","route_color":"#00214D","route_text_color":"#E6B012","agency_id":"ontario-northland","source_route_id":"102"},"geometry":{"type":"LineString","coordinates":[[-79.65572479396,44.4204004723606],[-79.65581,44.4202799],[-79.65651,44.4196],[-79.6585,44.41825],[-79.65948,44.4178],[-79.66051,44.4174199],[-79.6676799,44.4155799],[-79.6734899,44.41415],[-79.68026,44.4121599],[-79.6827099,44.4113799],[-79.68372,44.41096],[-79.68559,44.4099399],[-79.6911199,44.40594],[-79.69613,44.4020899],[-79.69979,44.3976899],[-79.70299,44.3936799],[-79.70662,44.3888599],[-79.70925,44.38378],[-79.71138,44.3795399],[-79.71191,44.37792],[-79.7118899,44.37631],[-79.71151,44.37499],[-79.7106499,44.37355],[-79.7057199,44.36914],[-79.70186,44.3657499],[-79.69973,44.3635799],[-79.69928,44.3617099],[-79.69851,44.36113],[-79.6973499,44.36108],[-79.6972499,44.36386],[-79.6970899,44.3646999],[-79.6937799,44.36957],[-79.69054,44.3741599],[-79.6901939,44.374099],[-79.68988,44.37417],[-79.6893699,44.37391],[-79.68876,44.37449],[-79.6888199,44.37496],[-79.6892799,44.3749099],[-79.69038,44.3746099],[-79.69342,44.37023],[-79.69625,44.3662],[-79.69733,44.3645399],[-79.6976,44.36187],[-79.69293,44.35792],[-79.6919299,44.3569599],[-79.6907599,44.3555],[-79.68979,44.35386],[-79.6880899,44.3484799],[-79.6869799,44.3440499],[-79.6856699,44.33868],[-79.6843199,44.33333],[-79.68305,44.32818],[-79.68279,44.32618],[-79.68298498944992,44.3217277408934]]}},{"type":"Feature","properties":{"shape_id":"ONTC:1085","route_id":"ONTC","route_short_name":"ON","route_long_name":"Ontario Northland","route_color":"#00214D","route_text_color":"#E6B012","agency_id":"ontario-northland","source_route_id":"202"},"geometry":{"type":"LineString","coordinates":[[-79.65572479396,44.4204004723606],[-79.65581,44.4202799],[-79.65651,44.4196],[-79.6585,44.41825],[-79.65948,44.4178],[-79.66051,44.4174199],[-79.6676799,44.4155799],[-79.6734899,44.41415],[-79.68026,44.4121599],[-79.6827099,44.4113799],[-79.68372,44.41096],[-79.68559,44.4099399],[-79.6911199,44.40594],[-79.69613,44.4020899],[-79.69979,44.3976899],[-79.70299,44.3936799],[-79.70662,44.3888599],[-79.70925,44.38378],[-79.71138,44.3795399],[-79.71191,44.37792],[-79.7118899,44.37631],[-79.71151,44.37499],[-79.7106499,44.37355],[-79.7057199,44.36914],[-79.70186,44.3657499],[-79.69973,44.3635799],[-79.69928,44.3617099],[-79.69851,44.36113],[-79.6973499,44.36108],[-79.6972499,44.36386],[-79.6970899,44.3646999],[-79.6937799,44.36957],[-79.69054,44.3741599],[-79.6901939,44.374099],[-79.68986,44.37421],[-79.68972,44.374],[-79.6889199,44.3740199],[-79.6887799,44.37463],[-79.6891099,44.3749699],[-79.69021,44.37467],[-79.69343,44.37023],[-79.69622,44.36632],[-79.69731,44.36466],[-79.6976099,44.36225],[-79.69743,44.3617199],[-79.69293,44.35792],[-79.69182,44.3568199],[-79.6901899,44.35451],[-79.6883599,44.3493699],[-79.68706,44.34413],[-79.6857699,44.3388999],[-79.68446,44.33366],[-79.68332,44.32936],[-79.68277,44.3260299],[-79.68298975665378,44.3217277408934]]}},{"type":"Feature","properties":{"shape_id":"ONTC:1086","route_id":"ONTC","route_short_name":"ON","route_long_name":"Ontario Northland","route_color":"#00214D","route_text_color":"#E6B012","agency_id":"ontario-northland","source_route_id":"101"},"geometry":{"type":"LineString","coordinates":[[-79.68279339977096,44.3217277408934],[-79.68272,44.3229],[-79.6826099,44.32628],[-79.68348,44.3305299],[-79.68483,44.33586],[-79.68584,44.3402099],[-79.68696,44.3448399],[-79.6883,44.3501899],[-79.6889,44.35261],[-79.69015,44.3551499],[-79.6913499,44.35687],[-79.6951799,44.3607899],[-79.6955499,44.3616199],[-79.69556,44.36259],[-79.69642,44.3631899],[-79.69724,44.36356],[-79.69718,44.3644399],[-79.6945299,44.36846],[-79.6910499,44.37335],[-79.6901939,44.374099],[-79.6899299,44.3740199],[-79.6891099,44.3738899],[-79.6888199,44.37433],[-79.68912,44.37496],[-79.68994,44.37472],[-79.69068,44.3741199],[-79.6937099,44.3698199],[-79.6970499,44.36514],[-79.69724,44.36485],[-79.6975099,44.3641099],[-79.6986999,44.36415],[-79.69977,44.3646299],[-79.7039199,44.36803],[-79.70852,44.372],[-79.7101499,44.3734999],[-79.7107499,44.37426],[-79.7115699,44.376],[-79.71171,44.37669],[-79.71165,44.3783],[-79.71119,44.37959],[-79.7086099,44.3845299],[-79.7064499,44.3886899],[-79.7029999,44.39338],[-79.6994899,44.3978899],[-79.6961399,44.4018899],[-79.6909899,44.40585],[-79.68579,44.4096399],[-79.6839899,44.41071],[-79.68263,44.41129],[-79.6764699,44.41303],[-79.6694799,44.41491],[-79.66208,44.41687],[-79.65984,44.4175199],[-79.6584599,44.41812],[-79.65666,44.4193],[-79.65591,44.41999],[-79.65562509407883,44.4204004723606]]}},{"type":"Feature","properties":{"shape_id":"ONTC:1087","route_id":"ONTC","route_short_name":"ON","route_long_name":"Ontario Northland","route_color":"#00214D","route_text_color":"#E6B012","agency_id":"ontario-northland","source_route_id":"102"},"geometry":{"type":"LineString","coordinates":[[-79.65572479396,44.4204004723606],[-79.65581,44.4202799],[-79.65651,44.4196],[-79.6585,44.41825],[-79.65948,44.4178],[-79.66051,44.4174199],[-79.6676799,44.4155799],[-79.6734899,44.41415],[-79.68026,44.4121599],[-79.6827099,44.4113799],[-79.68372,44.41096],[-79.68559,44.4099399],[-79.6911199,44.40594],[-79.69613,44.4020899],[-79.69979,44.3976899],[-79.70299,44.3936799],[-79.70662,44.3888599],[-79.70925,44.38378],[-79.71138,44.3795399],[-79.71191,44.37792],[-79.7118899,44.37631],[-79.71151,44.37499],[-79.7106499,44.37355],[-79.7057199,44.36914],[-79.70186,44.3657499],[-79.69973,44.3635799],[-79.69928,44.3617099],[-79.69851,44.36113],[-79.6973499,44.36108],[-79.6972499,44.36386],[-79.6970899,44.3646999],[-79.6937799,44.36957],[-79.69054,44.3741599],[-79.6901939,44.374099],[-79.68986,44.37421],[-79.68972,44.374],[-79.6889199,44.3740199],[-79.6887799,44.37463],[-79.6891099,44.3749699],[-79.69021,44.37467],[-79.69343,44.37023],[-79.69622,44.36632],[-79.69731,44.36466],[-79.6976099,44.36225],[-79.69743,44.3617199],[-79.69293,44.35792],[-79.69182,44.3568199],[-79.6901899,44.35451],[-79.6883599,44.3493699],[-79.68706,44.34413],[-79.6857699,44.3388999],[-79.68446,44.33366],[-79.68332,44.32936],[-79.68277,44.3260299],[-79.68298975665378,44.3217277408934]]}},{"type":"Feature","properties":{"shape_id":"ONTC:1089","route_id":"ONTC","route_short_name":"ON","route_long_name":"Ontario Northland","route_color":"#00214D","route_text_color":"#E6B012","agency_id":"ontario-northland","source_route_id":"102"},"geometry":{"type":"LineString","coordinates":[[-79.65572479396,44.4204004723606],[-79.65581,44.4202799],[-79.65651,44.4196],[-79.6585,44.41825],[-79.65948,44.4178],[-79.66051,44.4174199],[-79.6676799,44.4155799],[-79.6734899,44.41415],[-79.68026,44.4121599],[-79.6827099,44.4113799],[-79.68372,44.41096],[-79.68559,44.4099399],[-79.6911199,44.40594],[-79.69613,44.4020899],[-79.69979,44.3976899],[-79.70299,44.3936799],[-79.70662,44.3888599],[-79.70925,44.38378],[-79.71138,44.3795399],[-79.71191,44.37792],[-79.7118899,44.37631],[-79.71151,44.37499],[-79.7106499,44.37355],[-79.7057199,44.36914],[-79.70186,44.3657499],[-79.69973,44.3635799],[-79.69928,44.3617099],[-79.69851,44.36113],[-79.6973499,44.36108],[-79.6972499,44.36386],[-79.6970899,44.3646999],[-79.6937799,44.36957],[-79.69054,44.3741599],[-79.6901939,44.374099],[-79.68988,44.37417],[-79.6893699,44.37391],[-79.68876,44.37449],[-79.6888199,44.37496],[-79.6892799,44.3749099],[-79.69038,44.3746099],[-79.69342,44.37023],[-79.69625,44.3662],[-79.69733,44.3645399],[-79.6976,44.36187],[-79.69293,44.35792],[-79.6919299,44.3569599],[-79.6907599,44.3555],[-79.68979,44.35386],[-79.6880899,44.3484799],[-79.6869799,44.3440499],[-79.6856699,44.33868],[-79.6843199,44.33333],[-79.68305,44.32818],[-79.68279,44.32618],[-79.68298498944992,44.3217277408934]]}},{"type":"Feature","properties":{"shape_id":"ONTC:1090","route_id":"ONTC","route_short_name":"ON","route_long_name":"Ontario Northland","route_color":"#00214D","route_text_color":"#E6B012","agency_id":"ontario-northland","source_route_id":"201"},"geometry":{"type":"LineString","coordinates":[[-79.68279339977096,44.3217277408934],[-79.68272,44.3229],[-79.6826099,44.32628],[-79.68348,44.3305299],[-79.68483,44.33586],[-79.68584,44.3402099],[-79.68696,44.3448399],[-79.6883,44.3501899],[-79.6889,44.35261],[-79.69015,44.3551499],[-79.6913499,44.35687],[-79.6951799,44.3607899],[-79.6955499,44.3616199],[-79.69556,44.36259],[-79.69642,44.3631899],[-79.69724,44.36356],[-79.69718,44.3644399],[-79.6945299,44.36846],[-79.6910499,44.37335],[-79.6901939,44.374099],[-79.6895099,44.37395],[-79.6889199,44.3740199],[-79.6887799,44.3748799],[-79.68946,44.37489],[-79.69041,44.3745199],[-79.69324,44.3705399],[-79.69631,44.36612],[-79.69734,44.36456],[-79.6978099,44.36403],[-79.6989599,44.36423],[-79.70003,44.3648299],[-79.7045,44.3686099],[-79.7093699,44.3728],[-79.71067,44.37424],[-79.71126,44.37526],[-79.71168,44.37657],[-79.7116999,44.3776299],[-79.7115699,44.37841],[-79.7113299,44.37917],[-79.70892,44.3837999],[-79.70637,44.3886899],[-79.7029699,44.3933899],[-79.6996,44.39773],[-79.69645,44.40155],[-79.6940699,44.40362],[-79.6894399,44.40696],[-79.68506,44.4100699],[-79.68308,44.41107],[-79.68167,44.4115799],[-79.6749299,44.4133799],[-79.66888,44.4149899],[-79.6631099,44.41655],[-79.65936,44.4176499],[-79.65838,44.4181099],[-79.65669,44.4192],[-79.65545700132748,44.4204004723606]]}},{"type":"Feature","properties":{"shape_id":"ONTC:1091","route_id":"ONTC","route_short_name":"ON","route_long_name":"Ontario Northland","route_color":"#00214D","route_text_color":"#E6B012","agency_id":"ontario-northland","source_route_id":"202"},"geometry":{"type":"LineString","coordinates":[[-79.65572479396,44.4204004723606],[-79.65581,44.4202799],[-79.65651,44.4196],[-79.6585,44.41825],[-79.65948,44.4178],[-79.66051,44.4174199],[-79.6676799,44.4155799],[-79.6734899,44.41415],[-79.68026,44.4121599],[-79.6827099,44.4113799],[-79.68372,44.41096],[-79.68559,44.4099399],[-79.6911199,44.40594],[-79.69613,44.4020899],[-79.69979,44.3976899],[-79.70299,44.3936799],[-79.70662,44.3888599],[-79.70925,44.38378],[-79.71138,44.3795399],[-79.71191,44.37792],[-79.7118899,44.37631],[-79.71151,44.37499],[-79.7106499,44.37355],[-79.7057199,44.36914],[-79.70186,44.3657499],[-79.69973,44.3635799],[-79.69928,44.3617099],[-79.69851,44.36113],[-79.6973499,44.36108],[-79.6972499,44.36386],[-79.6970899,44.3646999],[-79.6937799,44.36957],[-79.69054,44.3741599],[-79.6901939,44.374099],[-79.68986,44.37421],[-79.68972,44.374],[-79.6889199,44.3740199],[-79.6887799,44.37463],[-79.6891099,44.3749699],[-79.69021,44.37467],[-79.69343,44.37023],[-79.69622,44.36632],[-79.69731,44.36466],[-79.6976099,44.36225],[-79.69743,44.3617199],[-79.69293,44.35792],[-79.69182,44.3568199],[-79.6901899,44.35451],[-79.6883599,44.3493699],[-79.68706,44.34413],[-79.6857699,44.3388999],[-79.68446,44.33366],[-79.68332,44.32936],[-79.68277,44.3260299],[-79.68298975665378,44.3217277408934]]}},{"type":"Feature","properties":{"shape_id":"ONTC:1092","route_id":"ONTC","route_short_name":"ON","route_long_name":"Ontario Northland","route_color":"#00214D","route_text_color":"#E6B012","agency_id":"ontario-northland","source_route_id":"201"},"geometry":{"type":"LineString","coordinates":[[-79.68280046873969,44.3217277408934],[-79.68273,44.3231099],[-79.68267,44.32719],[-79.6839599,44.33252],[-79.6851799,44.33763],[-79.68648,44.3429699],[-79.68758,44.34735],[-79.68893,44.3526499],[-79.6897299,44.3544299],[-79.6907,44.35602],[-79.69493,44.36054],[-79.69546,44.36121],[-79.69556,44.36216],[-79.69575,44.36297],[-79.69654,44.36317],[-79.69721,44.3636199],[-79.69711,44.36456],[-79.69402,44.3691299],[-79.6910799,44.3733399],[-79.69008,44.3747099],[-79.68887,44.3748499],[-79.6888,44.37456],[-79.6901939,44.374099],[-79.6899299,44.3740199],[-79.6891099,44.3738899],[-79.6888199,44.37433],[-79.68912,44.37496],[-79.68994,44.37472],[-79.69068,44.3741199],[-79.6937099,44.3698199],[-79.6970499,44.36514],[-79.69724,44.36485],[-79.6975099,44.3641099],[-79.6986999,44.36415],[-79.69977,44.3646299],[-79.7039199,44.36803],[-79.70852,44.372],[-79.7101499,44.3734999],[-79.7107499,44.37426],[-79.7115699,44.376],[-79.71171,44.37669],[-79.71165,44.3783],[-79.71119,44.37959],[-79.7086099,44.3845299],[-79.7064499,44.3886899],[-79.7029999,44.39338],[-79.6994899,44.3978899],[-79.6961399,44.4018899],[-79.6909899,44.40585],[-79.68579,44.4096399],[-79.6839899,44.41071],[-79.68263,44.41129],[-79.6764699,44.41303],[-79.6694799,44.41491],[-79.66208,44.41687],[-79.65984,44.4175199],[-79.6584599,44.41812],[-79.65666,44.4193],[-79.65591,44.41999],[-79.65562509407883,44.4204004723606]]}},{"type":"Feature","properties":{"shape_id":"ONTC:1093","route_id":"ONTC","route_short_name":"ON","route_long_name":"Ontario Northland","route_color":"#00214D","route_text_color":"#E6B012","agency_id":"ontario-northland","source_route_id":"201"},"geometry":{"type":"LineString","coordinates":[[-79.68280046873969,44.3217277408934],[-79.68273,44.3231099],[-79.68267,44.32719],[-79.6839599,44.33252],[-79.6851799,44.33763],[-79.68648,44.3429699],[-79.68758,44.34735],[-79.68893,44.3526499],[-79.6897299,44.3544299],[-79.6907,44.35602],[-79.69493,44.36054],[-79.69546,44.36121],[-79.69556,44.36216],[-79.69575,44.36297],[-79.69654,44.36317],[-79.69721,44.3636199],[-79.69711,44.36456],[-79.69402,44.3691299],[-79.6910799,44.3733399],[-79.69008,44.3747099],[-79.68887,44.3748499],[-79.6888,44.37456],[-79.6901939,44.374099],[-79.6899299,44.3740199],[-79.6891099,44.3738899],[-79.6888199,44.37433],[-79.68912,44.37496],[-79.68994,44.37472],[-79.69068,44.3741199],[-79.6937099,44.3698199],[-79.6970499,44.36514],[-79.69724,44.36485],[-79.6975099,44.3641099],[-79.6986999,44.36415],[-79.69977,44.3646299],[-79.7039199,44.36803],[-79.70852,44.372],[-79.7101499,44.3734999],[-79.7107499,44.37426],[-79.7115699,44.376],[-79.71171,44.37669],[-79.71165,44.3783],[-79.71119,44.37959],[-79.7086099,44.3845299],[-79.7064499,44.3886899],[-79.7029999,44.39338],[-79.6994899,44.3978899],[-79.6961399,44.4018899],[-79.6909899,44.40585],[-79.68579,44.4096399],[-79.6839899,44.41071],[-79.68263,44.41129],[-79.6764699,44.41303],[-79.6694799,44.41491],[-79.66208,44.41687],[-79.65984,44.4175199],[-79.6584599,44.41812],[-79.65666,44.4193],[-79.65591,44.41999],[-79.65562509407883,44.4204004723606]]}},{"type":"Feature","properties":{"shape_id":"ONTC:1094","route_id":"ONTC","route_short_name":"ON","route_long_name":"Ontario Northland","route_color":"#00214D","route_text_color":"#E6B012","agency_id":"ontario-northland","source_route_id":"202"},"geometry":{"type":"LineString","coordinates":[[-79.65572479396,44.4204004723606],[-79.65581,44.4202799],[-79.65651,44.4196],[-79.6585,44.41825],[-79.65948,44.4178],[-79.66051,44.4174199],[-79.6676799,44.4155799],[-79.6734899,44.41415],[-79.68026,44.4121599],[-79.6827099,44.4113799],[-79.68372,44.41096],[-79.68559,44.4099399],[-79.6911199,44.40594],[-79.69613,44.4020899],[-79.69979,44.3976899],[-79.70299,44.3936799],[-79.70662,44.3888599],[-79.70925,44.38378],[-79.71138,44.3795399],[-79.71191,44.37792],[-79.7118899,44.37631],[-79.71151,44.37499],[-79.7106499,44.37355],[-79.7057199,44.36914],[-79.70186,44.3657499],[-79.69973,44.3635799],[-79.69928,44.3617099],[-79.69851,44.36113],[-79.6973499,44.36108],[-79.6972499,44.36386],[-79.6970899,44.3646999],[-79.6937799,44.36957],[-79.69054,44.3741599],[-79.6901939,44.374099],[-79.68986,44.37421],[-79.68972,44.374],[-79.6889199,44.3740199],[-79.6887799,44.37463],[-79.6891099,44.3749699],[-79.69021,44.37467],[-79.69343,44.37023],[-79.69622,44.36632],[-79.69731,44.36466],[-79.6976099,44.36225],[-79.69743,44.3617199],[-79.69293,44.35792],[-79.69182,44.3568199],[-79.6901899,44.35451],[-79.6883599,44.3493699],[-79.68706,44.34413],[-79.6857699,44.3388999],[-79.68446,44.33366],[-79.68332,44.32936],[-79.68277,44.3260299],[-79.68298975665378,44.3217277408934]]}},{"type":"Feature","properties":{"shape_id":"ONTC:1095","route_id":"ONTC","route_short_name":"ON","route_long_name":"Ontario Northland","route_color":"#00214D","route_text_color":"#E6B012","agency_id":"ontario-northland","source_route_id":"202"},"geometry":{"type":"LineString","coordinates":[[-79.6557884188377,44.4204004723606],[-79.6567499,44.41941],[-79.6584499,44.4182699],[-79.66081,44.4173199],[-79.66701,44.4157099],[-79.67289,44.41428],[-79.68016,44.4121599],[-79.6822899,44.41152],[-79.6836699,44.41096],[-79.68584,44.4097699],[-79.69103,44.40601],[-79.69533,44.40279],[-79.69695,44.40121],[-79.7000499,44.3972999],[-79.7037499,44.39269],[-79.70633,44.38924],[-79.7087,44.3847899],[-79.7109399,44.3803299],[-79.7116599,44.37886],[-79.7119,44.3778599],[-79.71187,44.3762599],[-79.71158,44.37518],[-79.71054,44.3733999],[-79.7059,44.3692999],[-79.70203,44.36596],[-79.6999399,44.3638799],[-79.6993199,44.362],[-79.6988299,44.36118],[-79.6976499,44.3609199],[-79.69733,44.3617199],[-79.69718,44.36453],[-79.69674,44.3654499],[-79.6938699,44.36951],[-79.6903899,44.3744199],[-79.69035,44.3745099],[-79.68923,44.37487],[-79.6887799,44.37482],[-79.6888499,44.37424],[-79.6901939,44.374099],[-79.68988,44.37417],[-79.6893699,44.37391],[-79.68876,44.37449],[-79.6888199,44.37496],[-79.6892799,44.3749099],[-79.69038,44.3746099],[-79.69342,44.37023],[-79.69625,44.3662],[-79.69733,44.3645399],[-79.6976,44.36187],[-79.69293,44.35792],[-79.6919299,44.3569599],[-79.6907599,44.3555],[-79.68979,44.35386],[-79.6880899,44.3484799],[-79.6869799,44.3440499],[-79.6856699,44.33868],[-79.6843199,44.33333],[-79.68305,44.32818],[-79.68279,44.32618],[-79.68298498944992,44.3217277408934]]}},{"type":"Feature","properties":{"shape_id":"ONTC:1096","route_id":"ONTC","route_short_name":"ON","route_long_name":"Ontario Northland","route_color":"#00214D","route_text_color":"#E6B012","agency_id":"ontario-northland","source_route_id":"102"},"geometry":{"type":"LineString","coordinates":[[-79.65574717909692,44.4204004723606],[-79.6570399,44.41915],[-79.6581299,44.4184399],[-79.6602899,44.4174799],[-79.66602,44.4159799],[-79.67197,44.4145899],[-79.67893,44.4125599],[-79.6825199,44.41149],[-79.68464,44.4105599],[-79.6900599,44.40676],[-79.69468,44.4033699],[-79.69688,44.40132],[-79.7006699,44.39653],[-79.7043499,44.3920099],[-79.7066399,44.3888299],[-79.7092999,44.3836799],[-79.7114599,44.37942],[-79.7118899,44.3782],[-79.7119899,44.37696],[-79.7118899,44.3760199],[-79.7112099,44.37427],[-79.7098199,44.3726],[-79.7051999,44.36868],[-79.70125,44.3652299],[-79.69963,44.36343],[-79.6991899,44.36154],[-79.69822,44.3610199],[-79.69731,44.36124],[-79.69717,44.3642799],[-79.6967899,44.3652299],[-79.69392,44.3692699],[-79.69106,44.37336],[-79.69021,44.37463],[-79.69011,44.37469],[-79.68889,44.3748499],[-79.68887,44.3742],[-79.6901939,44.374099],[-79.68995,44.3741499],[-79.6895099,44.3739199],[-79.68881,44.37427],[-79.68877,44.3749399],[-79.6894099,44.37489],[-79.69008,44.3747099],[-79.69438,44.36883],[-79.6972,44.36488],[-79.6974499,44.3640099],[-79.6976799,44.3616799],[-79.69868,44.3613],[-79.6988599,44.36206],[-79.6986599,44.3621699],[-79.69763,44.36187],[-79.6928599,44.3578399],[-79.69186,44.3568499],[-79.69058,44.3551499],[-79.6893,44.35257],[-79.68795,44.3475699],[-79.6865799,44.3420899],[-79.6852999,44.33691],[-79.68421,44.3325699],[-79.68302,44.32755],[-79.6830099,44.32211],[-79.683027907318,44.3217277408934]]}},{"type":"Feature","properties":{"shape_id":"ONTC:1097","route_id":"ONTC","route_short_name":"ON","route_long_name":"Ontario Northland","route_color":"#00214D","route_text_color":"#E6B012","agency_id":"ontario-northland","source_route_id":"101"},"geometry":{"type":"LineString","coordinates":[[-79.68279339977096,44.3217277408934],[-79.68272,44.3229],[-79.6826099,44.32628],[-79.68348,44.3305299],[-79.68483,44.33586],[-79.68584,44.3402099],[-79.68696,44.3448399],[-79.6883,44.3501899],[-79.6889,44.35261],[-79.69015,44.3551499],[-79.6913499,44.35687],[-79.6951799,44.3607899],[-79.6955499,44.3616199],[-79.69556,44.36259],[-79.69642,44.3631899],[-79.69724,44.36356],[-79.69718,44.3644399],[-79.6945299,44.36846],[-79.6910499,44.37335],[-79.6901939,44.374099],[-79.6899299,44.3740199],[-79.6891099,44.3738899],[-79.6888199,44.37433],[-79.68912,44.37496],[-79.68994,44.37472],[-79.69068,44.3741199],[-79.6937099,44.3698199],[-79.6970499,44.36514],[-79.69724,44.36485],[-79.6975099,44.3641099],[-79.6986999,44.36415],[-79.69977,44.3646299],[-79.7039199,44.36803],[-79.70852,44.372],[-79.7101499,44.3734999],[-79.7107499,44.37426],[-79.7115699,44.376],[-79.71171,44.37669],[-79.71165,44.3783],[-79.71119,44.37959],[-79.7086099,44.3845299],[-79.7064499,44.3886899],[-79.7029999,44.39338],[-79.6994899,44.3978899],[-79.6961399,44.4018899],[-79.6909899,44.40585],[-79.68579,44.4096399],[-79.6839899,44.41071],[-79.68263,44.41129],[-79.6764699,44.41303],[-79.6694799,44.41491],[-79.66208,44.41687],[-79.65984,44.4175199],[-79.6584599,44.41812],[-79.65666,44.4193],[-79.65591,44.41999],[-79.65562509407883,44.4204004723606]]}},{"type":"Feature","properties":{"shape_id":"ONTC:1098","route_id":"ONTC","route_short_name":"ON","route_long_name":"Ontario Northland","route_color":"#00214D","route_text_color":"#E6B012","agency_id":"ontario-northland","source_route_id":"102"},"geometry":{"type":"LineString","coordinates":[[-79.65574717909692,44.4204004723606],[-79.6570399,44.41915],[-79.6581299,44.4184399],[-79.6602899,44.4174799],[-79.66602,44.4159799],[-79.67197,44.4145899],[-79.67893,44.4125599],[-79.6825199,44.41149],[-79.68464,44.4105599],[-79.6900599,44.40676],[-79.69468,44.4033699],[-79.69688,44.40132],[-79.7006699,44.39653],[-79.7043499,44.3920099],[-79.7066399,44.3888299],[-79.7092999,44.3836799],[-79.7114599,44.37942],[-79.7118899,44.3782],[-79.7119899,44.37696],[-79.7118899,44.3760199],[-79.7112099,44.37427],[-79.7098199,44.3726],[-79.7051999,44.36868],[-79.70125,44.3652299],[-79.69963,44.36343],[-79.6991899,44.36154],[-79.69822,44.3610199],[-79.69731,44.36124],[-79.69717,44.3642799],[-79.6967899,44.3652299],[-79.69392,44.3692699],[-79.69106,44.37336],[-79.69021,44.37463],[-79.69011,44.37469],[-79.68889,44.3748499],[-79.68887,44.3742],[-79.6901939,44.374099],[-79.68995,44.3741499],[-79.6895099,44.3739199],[-79.68881,44.37427],[-79.68877,44.3749399],[-79.6894099,44.37489],[-79.69008,44.3747099],[-79.69438,44.36883],[-79.6972,44.36488],[-79.6974499,44.3640099],[-79.6976799,44.3616799],[-79.69868,44.3613],[-79.6988599,44.36206],[-79.6986599,44.3621699],[-79.69763,44.36187],[-79.6928599,44.3578399],[-79.69186,44.3568499],[-79.69058,44.3551499],[-79.6893,44.35257],[-79.68795,44.3475699],[-79.6865799,44.3420899],[-79.6852999,44.33691],[-79.68421,44.3325699],[-79.68302,44.32755],[-79.6830099,44.32211],[-79.683027907318,44.3217277408934]]}},{"type":"Feature","properties":{"shape_id":"ONTC:1099","route_id":"ONTC","route_short_name":"ON","route_long_name":"Ontario Northland","route_color":"#00214D","route_text_color":"#E6B012","agency_id":"ontario-northland","source_route_id":"101"},"geometry":{"type":"LineString","coordinates":[[-79.68279339977096,44.3217277408934],[-79.68272,44.3229],[-79.6826099,44.32628],[-79.68348,44.3305299],[-79.68483,44.33586],[-79.68584,44.3402099],[-79.68696,44.3448399],[-79.6883,44.3501899],[-79.6889,44.35261],[-79.69015,44.3551499],[-79.6913499,44.35687],[-79.6951799,44.3607899],[-79.6955499,44.3616199],[-79.69556,44.36259],[-79.69642,44.3631899],[-79.69724,44.36356],[-79.69718,44.3644399],[-79.6945299,44.36846],[-79.6910499,44.37335],[-79.6901939,44.374099],[-79.6899299,44.3740199],[-79.6891099,44.3738899],[-79.6888199,44.37433],[-79.68912,44.37496],[-79.68994,44.37472],[-79.69068,44.3741199],[-79.6937099,44.3698199],[-79.6970499,44.36514],[-79.69724,44.36485],[-79.6975099,44.3641099],[-79.6986999,44.36415],[-79.69977,44.3646299],[-79.7039199,44.36803],[-79.70852,44.372],[-79.7101499,44.3734999],[-79.7107499,44.37426],[-79.7115699,44.376],[-79.71171,44.37669],[-79.71165,44.3783],[-79.71119,44.37959],[-79.7086099,44.3845299],[-79.7064499,44.3886899],[-79.7029999,44.39338],[-79.6994899,44.3978899],[-79.6961399,44.4018899],[-79.6909899,44.40585],[-79.68579,44.4096399],[-79.6839899,44.41071],[-79.68263,44.41129],[-79.6764699,44.41303],[-79.6694799,44.41491],[-79.66208,44.41687],[-79.65984,44.4175199],[-79.6584599,44.41812],[-79.65666,44.4193],[-79.65591,44.41999],[-79.65562509407883,44.4204004723606]]}},{"type":"Feature","properties":{"shape_id":"ONTC:1100","route_id":"ONTC","route_short_name":"ON","route_long_name":"Ontario Northland","route_color":"#00214D","route_text_color":"#E6B012","agency_id":"ontario-northland","source_route_id":"101"},"geometry":{"type":"LineString","coordinates":[[-79.68276433233534,44.3217277408934],[-79.68276,44.3217999],[-79.6825799,44.3263999],[-79.68355,44.3310199],[-79.68464,44.33541],[-79.6859599,44.34083],[-79.68725,44.3458899],[-79.6885,44.35103],[-79.6889799,44.35273],[-79.69017,44.3551499],[-79.6921999,44.35779],[-79.69531,44.36095],[-79.69559,44.3617099],[-79.6955499,44.3625699],[-79.6963399,44.36318],[-79.6972499,44.3633899],[-79.69717,44.3643099],[-79.69691,44.3650899],[-79.69383,44.36948],[-79.69061,44.37403],[-79.69035,44.3744],[-79.6898299,44.3747399],[-79.68873,44.37473],[-79.6887799,44.37453],[-79.6901939,44.374099],[-79.6899299,44.3740199],[-79.6891099,44.3738899],[-79.6888199,44.37433],[-79.68912,44.37496],[-79.68994,44.37472],[-79.69068,44.3741199],[-79.6937099,44.3698199],[-79.6970499,44.36514],[-79.69724,44.36485],[-79.6975099,44.3641099],[-79.6986999,44.36415],[-79.69977,44.3646299],[-79.7039199,44.36803],[-79.70852,44.372],[-79.7101499,44.3734999],[-79.7107499,44.37426],[-79.7115699,44.376],[-79.71171,44.37669],[-79.71165,44.3783],[-79.71119,44.37959],[-79.7086099,44.3845299],[-79.7064499,44.3886899],[-79.7029999,44.39338],[-79.6994899,44.3978899],[-79.6961399,44.4018899],[-79.6909899,44.40585],[-79.68579,44.4096399],[-79.6839899,44.41071],[-79.68263,44.41129],[-79.6764699,44.41303],[-79.6694799,44.41491],[-79.66208,44.41687],[-79.65984,44.4175199],[-79.6584599,44.41812],[-79.65666,44.4193],[-79.65591,44.41999],[-79.65562509407883,44.4204004723606]]}},{"type":"Feature","properties":{"shape_id":"ONTC:1101","route_id":"ONTC","route_short_name":"ON","route_long_name":"Ontario Northland","route_color":"#00214D","route_text_color":"#E6B012","agency_id":"ontario-northland","source_route_id":"101"},"geometry":{"type":"LineString","coordinates":[[-79.68279339977096,44.3217277408934],[-79.68272,44.3229],[-79.6826099,44.32628],[-79.68348,44.3305299],[-79.68483,44.33586],[-79.68584,44.3402099],[-79.68696,44.3448399],[-79.6883,44.3501899],[-79.6889,44.35261],[-79.69015,44.3551499],[-79.6913499,44.35687],[-79.6951799,44.3607899],[-79.6955499,44.3616199],[-79.69556,44.36259],[-79.69642,44.3631899],[-79.69724,44.36356],[-79.69718,44.3644399],[-79.6945299,44.36846],[-79.6910499,44.37335],[-79.6901939,44.374099],[-79.6899299,44.3740199],[-79.6891099,44.3738899],[-79.6888199,44.37433],[-79.68912,44.37496],[-79.68994,44.37472],[-79.69068,44.3741199],[-79.6937099,44.3698199],[-79.6970499,44.36514],[-79.69724,44.36485],[-79.6975099,44.3641099],[-79.6986999,44.36415],[-79.69977,44.3646299],[-79.7039199,44.36803],[-79.70852,44.372],[-79.7101499,44.3734999],[-79.7107499,44.37426],[-79.7115699,44.376],[-79.71171,44.37669],[-79.71165,44.3783],[-79.71119,44.37959],[-79.7086099,44.3845299],[-79.7064499,44.3886899],[-79.7029999,44.39338],[-79.6994899,44.3978899],[-79.6961399,44.4018899],[-79.6909899,44.40585],[-79.68579,44.4096399],[-79.6839899,44.41071],[-79.68263,44.41129],[-79.6764699,44.41303],[-79.6694799,44.41491],[-79.66208,44.41687],[-79.65984,44.4175199],[-79.6584599,44.41812],[-79.65666,44.4193],[-79.65591,44.41999],[-79.65562509407883,44.4204004723606]]}},{"type":"Feature","properties":{"shape_id":"ONTC:1102","route_id":"ONTC","route_short_name":"ON","route_long_name":"Ontario Northland","route_color":"#00214D","route_text_color":"#E6B012","agency_id":"ontario-northland","source_route_id":"102"},"geometry":{"type":"LineString","coordinates":[[-79.65578169241394,44.4204004723606],[-79.6567099,44.41943],[-79.6587199,44.4181399],[-79.66077,44.4173499],[-79.66773,44.41557],[-79.67397,44.4140399],[-79.6808399,44.41201],[-79.6829799,44.41133],[-79.68431,44.41074],[-79.68611,44.40969],[-79.69067,44.40634],[-79.69582,44.4024199],[-79.6996499,44.39791],[-79.70272,44.3940499],[-79.7062099,44.3895099],[-79.70905,44.38434],[-79.71119,44.38008],[-79.71184,44.3785499],[-79.712,44.37765],[-79.71195,44.3763],[-79.7115999,44.37499],[-79.71116,44.3741599],[-79.70985,44.3726099],[-79.70584,44.36921],[-79.70102,44.36498],[-79.69977,44.36361],[-79.6994,44.36261],[-79.6992899,44.36174],[-79.69855,44.3611],[-79.69789,44.3609599],[-79.69737,44.36133],[-79.69721,44.3640099],[-79.69698,44.36494],[-79.6936699,44.3696899],[-79.69048,44.37424],[-79.6896999,44.37476],[-79.6887899,44.37483],[-79.6888499,44.37421],[-79.6901939,44.374099],[-79.68986,44.37421],[-79.68972,44.374],[-79.6889199,44.3740199],[-79.6887799,44.37463],[-79.6891099,44.3749699],[-79.69021,44.37467],[-79.69343,44.37023],[-79.69622,44.36632],[-79.69731,44.36466],[-79.6976099,44.36225],[-79.69743,44.3617199],[-79.69293,44.35792],[-79.69182,44.3568199],[-79.6901899,44.35451],[-79.6883599,44.3493699],[-79.68706,44.34413],[-79.6857699,44.3388999],[-79.68446,44.33366],[-79.68332,44.32936],[-79.68277,44.3260299],[-79.68298975665378,44.3217277408934]]}},{"type":"Feature","properties":{"shape_id":"ONTC:1103","route_id":"ONTC","route_short_name":"ON","route_long_name":"Ontario Northland","route_color":"#00214D","route_text_color":"#E6B012","agency_id":"ontario-northland","source_route_id":"201"},"geometry":{"type":"LineString","coordinates":[[-79.68280046873969,44.3217277408934],[-79.68273,44.3231099],[-79.68267,44.32719],[-79.6839599,44.33252],[-79.6851799,44.33763],[-79.68648,44.3429699],[-79.68758,44.34735],[-79.68893,44.3526499],[-79.6897299,44.3544299],[-79.6907,44.35602],[-79.69493,44.36054],[-79.69546,44.36121],[-79.69556,44.36216],[-79.69575,44.36297],[-79.69654,44.36317],[-79.69721,44.3636199],[-79.69711,44.36456],[-79.69402,44.3691299],[-79.6910799,44.3733399],[-79.69008,44.3747099],[-79.68887,44.3748499],[-79.6888,44.37456],[-79.6901939,44.374099],[-79.6895099,44.37395],[-79.6889199,44.3740199],[-79.6887799,44.3748799],[-79.68946,44.37489],[-79.69041,44.3745199],[-79.69324,44.3705399],[-79.69631,44.36612],[-79.69734,44.36456],[-79.6978099,44.36403],[-79.6989599,44.36423],[-79.70003,44.3648299],[-79.7045,44.3686099],[-79.7093699,44.3728],[-79.71067,44.37424],[-79.71126,44.37526],[-79.71168,44.37657],[-79.7116999,44.3776299],[-79.7115699,44.37841],[-79.7113299,44.37917],[-79.70892,44.3837999],[-79.70637,44.3886899],[-79.7029699,44.3933899],[-79.6996,44.39773],[-79.69645,44.40155],[-79.6940699,44.40362],[-79.6894399,44.40696],[-79.68506,44.4100699],[-79.68308,44.41107],[-79.68167,44.4115799],[-79.6749299,44.4133799],[-79.66888,44.4149899],[-79.6631099,44.41655],[-79.65936,44.4176499],[-79.65838,44.4181099],[-79.65669,44.4192],[-79.65545700132748,44.4204004723606]]}},{"type":"Feature","properties":{"shape_id":"ONTC:1105","route_id":"ONTC","route_short_name":"ON","route_long_name":"Ontario Northland","route_color":"#00214D","route_text_color":"#E6B012","agency_id":"ontario-northland","source_route_id":"101"},"geometry":{"type":"LineString","coordinates":[[-79.68280046873969,44.3217277408934],[-79.68273,44.3231099],[-79.68267,44.32719],[-79.6839599,44.33252],[-79.6851799,44.33763],[-79.68648,44.3429699],[-79.68758,44.34735],[-79.68893,44.3526499],[-79.6897299,44.3544299],[-79.6907,44.35602],[-79.69493,44.36054],[-79.69546,44.36121],[-79.69556,44.36216],[-79.69575,44.36297],[-79.69654,44.36317],[-79.69721,44.3636199],[-79.69711,44.36456],[-79.69402,44.3691299],[-79.6910799,44.3733399],[-79.69008,44.3747099],[-79.68887,44.3748499],[-79.6888,44.37456],[-79.6901939,44.374099],[-79.6899299,44.3740199],[-79.6891099,44.3738899],[-79.6888199,44.37433],[-79.68912,44.37496],[-79.68994,44.37472],[-79.69068,44.3741199],[-79.6937099,44.3698199],[-79.6970499,44.36514],[-79.69724,44.36485],[-79.6975099,44.3641099],[-79.6986999,44.36415],[-79.69977,44.3646299],[-79.7039199,44.36803],[-79.70852,44.372],[-79.7101499,44.3734999],[-79.7107499,44.37426],[-79.7115699,44.376],[-79.71171,44.37669],[-79.71165,44.3783],[-79.71119,44.37959],[-79.7086099,44.3845299],[-79.7064499,44.3886899],[-79.7029999,44.39338],[-79.6994899,44.3978899],[-79.6961399,44.4018899],[-79.6909899,44.40585],[-79.68579,44.4096399],[-79.6839899,44.41071],[-79.68263,44.41129],[-79.6764699,44.41303],[-79.6694799,44.41491],[-79.66208,44.41687],[-79.65984,44.4175199],[-79.6584599,44.41812],[-79.65666,44.4193],[-79.65591,44.41999],[-79.65562509407883,44.4204004723606]]}}]}