{"type":"FeatureCollection","features":[{"type":"Feature","properties":{"shape_id":"LINX:1000689","route_id":"LINX-1","route_short_name":"LINX 1","route_long_name":"Barrie - Midland-Penetanguishene","route_color":"#FF7733","route_text_color":"#FFFFFF","agency_id":"simcoe-linx","agency_name":"Simcoe County Linx","source_route_id":"1"},"geometry":{"type":"LineString","coordinates":[[-79.660687,44.415478],[-79.66081,44.41545],[-79.66222,44.41553],[-79.66247,44.41552],[-79.66273,44.41543],[-79.66288,44.41533],[-79.66299,44.41521],[-79.66323,44.41447],[-79.6633,44.41443],[-79.66337,44.41442],[-79.66487,44.41458],[-79.66544,44.41464],[-79.66568,44.41475],[-79.66574,44.4148],[-79.66578,44.41485],[-79.66593,44.41519],[-79.66601,44.41525],[-79.66607,44.41527],[-79.66622,44.41526],[-79.6675,44.41489],[-79.66875,44.41449],[-79.66885,44.4144],[-79.66901,44.41346],[-79.66898,44.41334],[-79.66913,44.41251],[-79.66919,44.41245],[-79.66928,44.41242],[-79.66936,44.41237],[-79.6694,44.41224],[-79.66937,44.41218],[-79.66928,44.41212],[-79.669214,44.412052],[-79.66895,44.41244],[-79.66905,44.41252],[-79.66874,44.41356],[-79.66873,44.41421],[-79.66882,44.41438],[-79.66887,44.41441],[-79.66898,44.41443],[-79.66914,44.41442],[-79.67052,44.41398],[-79.67176,44.41262],[-79.67201,44.41243],[-79.67238,44.41229],[-79.67274,44.41227],[-79.67299,44.41238],[-79.6728,44.41474],[-79.67302,44.41535],[-79.67352,44.4159],[-79.67412,44.41623],[-79.67465,44.41639],[-79.67606,44.41653],[-79.67703,44.41656],[-79.67816,44.41631],[-79.68022,44.41542],[-79.683356,44.414096],[-79.68347,44.414],[-79.68883,44.41164],[-79.68893,44.41166],[-79.69215,44.41541],[-79.69644715058546,44.4204004723606]]}},{"type":"Feature","properties":{"shape_id":"LINX:1001310","route_id":"LINX-2","route_short_name":"LINX 2","route_long_name":"Barrie-Wasaga Beach","route_color":"#006747","route_text_color":"#FFFFFF","agency_id":"simcoe-linx","agency_name":"Simcoe County Linx","source_route_id":"2"},"geometry":{"type":"LineString","coordinates":[[-79.689146,44.373913],[-79.68886,44.37399],[-79.68874,44.3747],[-79.68875,44.37482],[-79.68886,44.37492],[-79.68898,44.37496],[-79.68931,44.37494],[-79.69621,44.37336],[-79.70385,44.37165],[-79.7107,44.37012],[-79.71856,44.36831],[-79.72709,44.36638],[-79.73032,44.3656],[-79.73062,44.36556],[-79.7319,44.36585],[-79.73199,44.36586],[-79.73496,44.36465],[-79.7371769867536,44.36413704031096]]}},{"type":"Feature","properties":{"shape_id":"LINX:1001316","route_id":"LINX-1","route_short_name":"LINX 1","route_long_name":"Barrie - Midland-Penetanguishene","route_color":"#FF7733","route_text_color":"#FFFFFF","agency_id":"simcoe-linx","agency_name":"Simcoe County Linx","source_route_id":"1"},"geometry":{"type":"LineString","coordinates":[[-79.69653029500218,44.4204004723606],[-79.69538,44.41904],[-79.69217,44.41534],[-79.68895,44.41159],[-79.68886,44.41156],[-79.68881,44.41156],[-79.683172,44.413935],[-79.68303,44.41404],[-79.68078,44.41507],[-79.67809,44.41623],[-79.67695,44.41647],[-79.67475,44.4163],[-79.67397,44.41605],[-79.67345,44.4157],[-79.67307,44.41525],[-79.67295,44.415],[-79.67299,44.41392],[-79.67335,44.41235],[-79.67333,44.41224],[-79.6733,44.4122],[-79.67267,44.41214],[-79.67243,44.41216],[-79.67196,44.41232],[-79.6709,44.41362],[-79.6706,44.41384],[-79.67034,44.41396],[-79.66904,44.4143],[-79.66895,44.41429],[-79.66886,44.41423],[-79.66883,44.41418],[-79.66912,44.4125],[-79.66934,44.41236],[-79.66941,44.41229],[-79.66943,44.41221],[-79.6694,44.41213],[-79.66926,44.41208],[-79.669214,44.412052],[-79.66892,44.41242],[-79.66899,44.41247],[-79.66902,44.41251],[-79.66903,44.41256],[-79.66884,44.4134],[-79.66876,44.41348],[-79.66873,44.41353],[-79.66865,44.41423],[-79.6687,44.41442],[-79.66868,44.41446],[-79.66863,44.4145],[-79.66706,44.41494],[-79.66545,44.41539],[-79.66388,44.41578],[-79.66224,44.41612],[-79.66061,44.41647],[-79.65988,44.41657],[-79.65914,44.41652],[-79.65906,44.41645],[-79.65904,44.41636],[-79.65924,44.41536],[-79.65931,44.41528],[-79.65938,44.41527],[-79.660687,44.415478]]}},{"type":"Feature","properties":{"shape_id":"LINX:1001674","route_id":"LINX-2","route_short_name":"LINX 2","route_long_name":"Barrie-Wasaga Beach","route_color":"#006747","route_text_color":"#FFFFFF","agency_id":"simcoe-linx","agency_name":"Simcoe County Linx","source_route_id":"2"},"geometry":{"type":"LineString","coordinates":[[-79.7371769867536,44.36391982169053],[-79.7353,44.36436],[-79.73312,44.36518],[-79.73206,44.36567],[-79.73187,44.3657],[-79.73115,44.36556],[-79.73068,44.36554],[-79.72315,44.36721],[-79.71647,44.36876],[-79.70905,44.37044],[-79.70295,44.3718],[-79.69511,44.37356],[-79.68907,44.37487],[-79.68889,44.37486],[-79.68882,44.37484],[-79.68877,44.37479],[-79.68876,44.37468],[-79.68887,44.37417],[-79.68894,44.37409],[-79.68968,44.37418],[-79.68989,44.37416],[-79.68993,44.37408],[-79.68988,44.37401],[-79.689146,44.373913]]}},{"type":"Feature","properties":{"shape_id":"LINX:1003418","route_id":"LINX-3","route_short_name":"LINX 3","route_long_name":"Barrie-Orillia","route_color":"#339966","route_text_color":"#FFFFFF","agency_id":"simcoe-linx","agency_name":"Simcoe County Linx","source_route_id":"3"},"geometry":{"type":"LineString","coordinates":[[-79.669214,44.412052],[-79.66889,44.41241],[-79.66896,44.41245],[-79.66902,44.41253],[-79.66888,44.41337],[-79.66877,44.41346],[-79.66872,44.41354],[-79.66866,44.4142],[-79.6687,44.41437],[-79.66867,44.41445],[-79.66716,44.41492],[-79.66564,44.41534],[-79.66407,44.41573],[-79.66099,44.41639],[-79.65976,44.41658],[-79.65927,44.41655],[-79.65912,44.41652],[-79.65906,44.41646],[-79.65904,44.41636],[-79.65922,44.41538],[-79.65928,44.41531],[-79.65933,44.41528],[-79.65947,44.41527],[-79.660687,44.415478],[-79.66177,44.4155],[-79.66185,44.41553],[-79.6619,44.41556],[-79.66194,44.41567],[-79.66186,44.41616],[-79.66173,44.41625],[-79.66025,44.41657],[-79.65484,44.41613],[-79.64998,44.41569],[-79.64614,44.41537],[-79.64603,44.41542],[-79.64516,44.41992],[-79.64507134792436,44.4204004723606]]}},{"type":"Feature","properties":{"shape_id":"LINX:1004592","route_id":"LINX-3","route_short_name":"LINX 3","route_long_name":"Barrie-Orillia","route_color":"#339966","route_text_color":"#FFFFFF","agency_id":"simcoe-linx","agency_name":"Simcoe County Linx","source_route_id":"3"},"geometry":{"type":"LineString","coordinates":[[-79.6451433493417,44.4204004723606],[-79.64518,44.42021],[-79.64599,44.41572],[-79.64606,44.41543],[-79.64615,44.41539],[-79.6462,44.41538],[-79.65244,44.41598],[-79.65701,44.41637],[-79.65888,44.41655],[-79.65894,44.41654],[-79.65905,44.41643],[-79.65935,44.41533],[-79.65943,44.41528],[-79.65952,44.41527],[-79.660687,44.415478],[-79.66081,44.41545],[-79.66222,44.41553],[-79.66247,44.41552],[-79.66273,44.41543],[-79.66288,44.41533],[-79.66299,44.41521],[-79.66323,44.41447],[-79.6633,44.41443],[-79.66337,44.41442],[-79.66487,44.41458],[-79.66544,44.41464],[-79.66568,44.41475],[-79.66574,44.4148],[-79.66578,44.41485],[-79.66593,44.41519],[-79.66601,44.41525],[-79.66607,44.41527],[-79.66622,44.41526],[-79.6675,44.41489],[-79.66875,44.41449],[-79.66885,44.4144],[-79.66901,44.41346],[-79.66898,44.41334],[-79.66913,44.41251],[-79.66919,44.41245],[-79.66928,44.41242],[-79.66936,44.41237],[-79.6694,44.41224],[-79.66937,44.41218],[-79.66928,44.41212],[-79.669214,44.412052]]}},{"type":"Feature","properties":{"shape_id":"LINX:1004644","route_id":"LINX-1","route_short_name":"LINX 1","route_long_name":"Barrie - Midland-Penetanguishene","route_color":"#FF7733","route_text_color":"#FFFFFF","agency_id":"simcoe-linx","agency_name":"Simcoe County Linx","source_route_id":"1"},"geometry":{"type":"LineString","coordinates":[[-79.69653029500218,44.4204004723606],[-79.69538,44.41904],[-79.69217,44.41534],[-79.68895,44.41159],[-79.68886,44.41156],[-79.68881,44.41156],[-79.683172,44.413935],[-79.68303,44.41404],[-79.68078,44.41507],[-79.67809,44.41623],[-79.67695,44.41647],[-79.67475,44.4163],[-79.67397,44.41605],[-79.67345,44.4157],[-79.67307,44.41525],[-79.67295,44.415],[-79.67299,44.41392],[-79.67335,44.41235],[-79.67333,44.41224],[-79.6733,44.4122],[-79.67267,44.41214],[-79.67243,44.41216],[-79.67196,44.41232],[-79.6709,44.41362],[-79.6706,44.41384],[-79.67034,44.41396],[-79.66904,44.4143],[-79.66895,44.41429],[-79.66886,44.41423],[-79.66883,44.41418],[-79.66912,44.4125],[-79.66934,44.41236],[-79.66941,44.41229],[-79.66943,44.41221],[-79.6694,44.41213],[-79.66926,44.41208],[-79.669214,44.412052],[-79.66892,44.41242],[-79.66899,44.41247],[-79.66902,44.41251],[-79.66903,44.41256],[-79.66884,44.4134],[-79.66876,44.41348],[-79.66873,44.41353],[-79.66865,44.41423],[-79.6687,44.41442],[-79.66868,44.41446],[-79.66863,44.4145],[-79.66706,44.41494],[-79.66545,44.41539],[-79.66388,44.41578],[-79.66224,44.41612],[-79.66061,44.41647],[-79.65988,44.41657],[-79.65914,44.41652],[-79.65906,44.41645],[-79.65904,44.41636],[-79.65924,44.41536],[-79.65931,44.41528],[-79.65938,44.41527],[-79.660687,44.415478]]}}]}