{"type":"FeatureCollection","features":[{"type":"Feature","properties":{"stop_id":"1","stop_code":"1","stop_name":"Downtown Hub"},"geometry":{"type":"Point","coordinates":[-79.690372,44.387588]}},{"type":"Feature","properties":{"stop_id":"2","stop_code":"2","stop_name":"Downtown Hub"},"geometry":{"type":"Point","coordinates":[-79.690237,44.387753]}},{"type":"Feature","properties":{"stop_id":"3","stop_code":"3","stop_name":"Ecole Catholique"},"geometry":{"type":"Point","coordinates":[-79.71669424,44.39596232]}},{"type":"Feature","properties":{"stop_id":"4","stop_code":"4","stop_name":"Austen Lane"},"geometry":{"type":"Point","coordinates":[-79.71720756,44.39621595]}},{"type":"Feature","properties":{"stop_id":"5","stop_code":"5","stop_name":"Anne at Dunlop"},"geometry":{"type":"Point","coordinates":[-79.70473412,44.3822016]}},{"type":"Feature","properties":{"stop_id":"6","stop_code":"6","stop_name":"Anne at Dunlop"},"geometry":{"type":"Point","coordinates":[-79.70522385,44.38237491]}},{"type":"Feature","properties":{"stop_id":"7","stop_code":"7","stop_name":"Brock Street"},"geometry":{"type":"Point","coordinates":[-79.69954204,44.37573805]}},{"type":"Feature","properties":{"stop_id":"8","stop_code":"8","stop_name":"Brock Street"},"geometry":{"type":"Point","coordinates":[-79.69885335,44.37535431]}},{"type":"Feature","properties":{"stop_id":"12","stop_code":"12","stop_name":"Portageview Public School"},"geometry":{"type":"Point","coordinates":[-79.71430148,44.39290293]}},{"type":"Feature","properties":{"stop_id":"13","stop_code":"13","stop_name":"Castle Drive"},"geometry":{"type":"Point","coordinates":[-79.71401954,44.39285782]}},{"type":"Feature","properties":{"stop_id":"14","stop_code":"14","stop_name":"Essa at Gowan"},"geometry":{"type":"Point","coordinates":[-79.691152,44.373522]}},{"type":"Feature","properties":{"stop_id":"15","stop_code":"15","stop_name":"Anne at Cundles"},"geometry":{"type":"Point","coordinates":[-79.71897992,44.39832266]}},{"type":"Feature","properties":{"stop_id":"16","stop_code":"16","stop_name":"Cundles at Anne"},"geometry":{"type":"Point","coordinates":[-79.71879042,44.39886825]}},{"type":"Feature","properties":{"stop_id":"17","stop_code":"17","stop_name":"Edgehill Drive"},"geometry":{"type":"Point","coordinates":[-79.70892086,44.38697443]}},{"type":"Feature","properties":{"stop_id":"18","stop_code":"18","stop_name":"Anne at Edgehill Drive"},"geometry":{"type":"Point","coordinates":[-79.70935615,44.38715706]}},{"type":"Feature","properties":{"stop_id":"21","stop_code":"21","stop_name":"Anne at John Street"},"geometry":{"type":"Point","coordinates":[-79.701153,44.3781]}},{"type":"Feature","properties":{"stop_id":"22","stop_code":"22","stop_name":"Anne at John Street"},"geometry":{"type":"Point","coordinates":[-79.701,44.377472]}},{"type":"Feature","properties":{"stop_id":"23","stop_code":"23","stop_name":"Shelly Lane"},"geometry":{"type":"Point","coordinates":[-79.71562628,44.3944009]}},{"type":"Feature","properties":{"stop_id":"24","stop_code":"24","stop_name":"Shirley Avenue"},"geometry":{"type":"Point","coordinates":[-79.71222054,44.39053543]}},{"type":"Feature","properties":{"stop_id":"25","stop_code":"25","stop_name":"Shirley Avenue"},"geometry":{"type":"Point","coordinates":[-79.71217627,44.3907245]}},{"type":"Feature","properties":{"stop_id":"26","stop_code":"26","stop_name":"Anne at Donald"},"geometry":{"type":"Point","coordinates":[-79.706722,44.384088]}},{"type":"Feature","properties":{"stop_id":"27","stop_code":"27","stop_name":"Anne at Donald"},"geometry":{"type":"Point","coordinates":[-79.706414,44.38407]}},{"type":"Feature","properties":{"stop_id":"28","stop_code":"28","stop_name":"Valley Drive"},"geometry":{"type":"Point","coordinates":[-79.71558916,44.39464993]}},{"type":"Feature","properties":{"stop_id":"29","stop_code":"29","stop_name":"Anne at Vespra Street"},"geometry":{"type":"Point","coordinates":[-79.7029749,44.38011853]}},{"type":"Feature","properties":{"stop_id":"30","stop_code":"30","stop_name":"Anne at Victoria Street"},"geometry":{"type":"Point","coordinates":[-79.70270864,44.37944567]}},{"type":"Feature","properties":{"stop_id":"32","stop_code":"32","stop_name":"Eaglestone Lane"},"geometry":{"type":"Point","coordinates":[-79.72225259,44.3532061]}},{"type":"Feature","properties":{"stop_id":"34","stop_code":"34","stop_name":"Ardagh at Ferndale"},"geometry":{"type":"Point","coordinates":[-79.7144519,44.35513502]}},{"type":"Feature","properties":{"stop_id":"35","stop_code":"35","stop_name":"Ardagh at Ferndale"},"geometry":{"type":"Point","coordinates":[-79.71410519,44.35500455]}},{"type":"Feature","properties":{"stop_id":"36","stop_code":"36","stop_name":"Grant's Way"},"geometry":{"type":"Point","coordinates":[-79.72746197,44.3520781]}},{"type":"Feature","properties":{"stop_id":"37","stop_code":"37","stop_name":"Hawkins Drive"},"geometry":{"type":"Point","coordinates":[-79.72189311,44.35342967]}},{"type":"Feature","properties":{"stop_id":"38","stop_code":"38","stop_name":"Snowshoe Trail"},"geometry":{"type":"Point","coordinates":[-79.70986103,44.35598594]}},{"type":"Feature","properties":{"stop_id":"39","stop_code":"39","stop_name":"Snowshoe Trail"},"geometry":{"type":"Point","coordinates":[-79.70982703,44.3561345]}},{"type":"Feature","properties":{"stop_id":"40","stop_code":"40","stop_name":"Wildflower Court"},"geometry":{"type":"Point","coordinates":[-79.73092996,44.35141836]}},{"type":"Feature","properties":{"stop_id":"41","stop_code":"41","stop_name":"Wildflower Court"},"geometry":{"type":"Point","coordinates":[-79.73086153,44.35127803]}},{"type":"Feature","properties":{"stop_id":"42","stop_code":"42","stop_name":"Wright Drive"},"geometry":{"type":"Point","coordinates":[-79.72698487,44.35231205]}},{"type":"Feature","properties":{"stop_id":"45","stop_code":"45","stop_name":"Athabaska at Essa"},"geometry":{"type":"Point","coordinates":[-79.72029115,44.32207598]}},{"type":"Feature","properties":{"stop_id":"46","stop_code":"46","stop_name":"Athabaska at Essa"},"geometry":{"type":"Point","coordinates":[-79.7188192,44.32197245]}},{"type":"Feature","properties":{"stop_id":"47","stop_code":"47","stop_name":"Lougheed Road"},"geometry":{"type":"Point","coordinates":[-79.72805133,44.32184739]}},{"type":"Feature","properties":{"stop_id":"48","stop_code":"48","stop_name":"Lougheed Road"},"geometry":{"type":"Point","coordinates":[-79.72753192,44.3218044]}},{"type":"Feature","properties":{"stop_id":"49","stop_code":"49","stop_name":"Rundle Crescent"},"geometry":{"type":"Point","coordinates":[-79.72353994,44.32269687]}},{"type":"Feature","properties":{"stop_id":"50","stop_code":"50","stop_name":"Rundle Cresent"},"geometry":{"type":"Point","coordinates":[-79.72355319,44.32258387]}},{"type":"Feature","properties":{"stop_id":"54","stop_code":"54","stop_name":"Brooks Street"},"geometry":{"type":"Point","coordinates":[-79.68717485,44.36796584]}},{"type":"Feature","properties":{"stop_id":"55","stop_code":"55","stop_name":"Innisfil Street"},"geometry":{"type":"Point","coordinates":[-79.69228597,44.36792165]}},{"type":"Feature","properties":{"stop_id":"56","stop_code":"56","stop_name":"Marshall Street"},"geometry":{"type":"Point","coordinates":[-79.68969951,44.36794544]}},{"type":"Feature","properties":{"stop_id":"57","stop_code":"57","stop_name":"Bayfield at Highway 400"},"geometry":{"type":"Point","coordinates":[-79.69791869,44.39853755]}},{"type":"Feature","properties":{"stop_id":"58","stop_code":"58","stop_name":"Bayfield Mall"},"geometry":{"type":"Point","coordinates":[-79.70051743,44.40113899]}},{"type":"Feature","properties":{"stop_id":"59","stop_code":"59","stop_name":"Coulter Street"},"geometry":{"type":"Point","coordinates":[-79.699795,44.400654]}},{"type":"Feature","properties":{"stop_id":"60","stop_code":"60","stop_name":"Kozlov Centre"},"geometry":{"type":"Point","coordinates":[-79.70324725,44.40425962]}},{"type":"Feature","properties":{"stop_id":"61","stop_code":"61","stop_name":"Bayfield at Cundles"},"geometry":{"type":"Point","coordinates":[-79.70328888,44.40466177]}},{"type":"Feature","properties":{"stop_id":"62","stop_code":"62","stop_name":"Bayfield at Highway 400"},"geometry":{"type":"Point","coordinates":[-79.699485,44.399913]}},{"type":"Feature","properties":{"stop_id":"63","stop_code":"63","stop_name":"Rose at Highway 400"},"geometry":{"type":"Point","coordinates":[-79.69753967,44.39890141]}},{"type":"Feature","properties":{"stop_id":"64","stop_code":"64","stop_name":"Bayfield at Highway 400"},"geometry":{"type":"Point","coordinates":[-79.69808739,44.39841063]}},{"type":"Feature","properties":{"stop_id":"65","stop_code":"65","stop_name":"Ferris Lane"},"geometry":{"type":"Point","coordinates":[-79.701782,44.402915]}},{"type":"Feature","properties":{"stop_id":"67","stop_code":"67","stop_name":"Grove Street"},"geometry":{"type":"Point","coordinates":[-79.69624255,44.39659223]}},{"type":"Feature","properties":{"stop_id":"68","stop_code":"68","stop_name":"Grove Street"},"geometry":{"type":"Point","coordinates":[-79.6963538,44.39644259]}},{"type":"Feature","properties":{"stop_id":"69","stop_code":"69","stop_name":"Heather Street"},"geometry":{"type":"Point","coordinates":[-79.706456,44.407827]}},{"type":"Feature","properties":{"stop_id":"70","stop_code":"70","stop_name":"Springwater plaza"},"geometry":{"type":"Point","coordinates":[-79.70620755,44.40802404]}},{"type":"Feature","properties":{"stop_id":"71","stop_code":"71","stop_name":"Bayfield at Livingstone"},"geometry":{"type":"Point","coordinates":[-79.7081283,44.41032007]}},{"type":"Feature","properties":{"stop_id":"72","stop_code":"72","stop_name":"Bayfield at Livingstone"},"geometry":{"type":"Point","coordinates":[-79.708415,44.410105]}},{"type":"Feature","properties":{"stop_id":"73","stop_code":"73","stop_name":"Bayfield at Wellington"},"geometry":{"type":"Point","coordinates":[-79.69412,44.394131]}},{"type":"Feature","properties":{"stop_id":"74","stop_code":"74","stop_name":"Wellington Street"},"geometry":{"type":"Point","coordinates":[-79.6942707,44.39395278]}},{"type":"Feature","properties":{"stop_id":"75","stop_code":"75","stop_name":"Bayfield at Sophia"},"geometry":{"type":"Point","coordinates":[-79.692739,44.392146]}},{"type":"Feature","properties":{"stop_id":"76","stop_code":"76","stop_name":"Georgian Mall"},"geometry":{"type":"Point","coordinates":[-79.70857627,44.41187453]}},{"type":"Feature","properties":{"stop_id":"77","stop_code":"77","stop_name":"Georgian Mall North Entrance"},"geometry":{"type":"Point","coordinates":[-79.70947565,44.41304049]}},{"type":"Feature","properties":{"stop_id":"82","stop_code":"82","stop_name":"230 Bayview Drive"},"geometry":{"type":"Point","coordinates":[-79.682528,44.358364]}},{"type":"Feature","properties":{"stop_id":"83","stop_code":"83","stop_name":"231 Bayview Drive"},"geometry":{"type":"Point","coordinates":[-79.682381,44.358461]}},{"type":"Feature","properties":{"stop_id":"86","stop_code":"86","stop_name":"330 Bayview Drive"},"geometry":{"type":"Point","coordinates":[-79.680587,44.351791]}},{"type":"Feature","properties":{"stop_id":"87","stop_code":"87","stop_name":"Bayview at Lansdown"},"geometry":{"type":"Point","coordinates":[-79.680602,44.352537]}},{"type":"Feature","properties":{"stop_id":"88","stop_code":"88","stop_name":"Bayfield at Dunlop"},"geometry":{"type":"Point","coordinates":[-79.69050188,44.38949987]}},{"type":"Feature","properties":{"stop_id":"89","stop_code":"89","stop_name":"Bayfield at Chase McEachern"},"geometry":{"type":"Point","coordinates":[-79.68934943,44.38844893]}},{"type":"Feature","properties":{"stop_id":"90","stop_code":"90","stop_name":"Churchill Drive"},"geometry":{"type":"Point","coordinates":[-79.67807608,44.34321618]}},{"type":"Feature","properties":{"stop_id":"91","stop_code":"91","stop_name":"Bayview at Churchill"},"geometry":{"type":"Point","coordinates":[-79.67825741,44.34288369]}},{"type":"Feature","properties":{"stop_id":"92","stop_code":"92","stop_name":"Glenridge Road"},"geometry":{"type":"Point","coordinates":[-79.68471616,44.36660415]}},{"type":"Feature","properties":{"stop_id":"94","stop_code":"94","stop_name":"Bayview at Little"},"geometry":{"type":"Point","coordinates":[-79.68368112,44.36268923]}},{"type":"Feature","properties":{"stop_id":"95","stop_code":"95","stop_name":"Bayview at Little"},"geometry":{"type":"Point","coordinates":[-79.683233,44.361703]}},{"type":"Feature","properties":{"stop_id":"97","stop_code":"97","stop_name":"Bayview at Mapleview"},"geometry":{"type":"Point","coordinates":[-79.6785026,44.33650795]}},{"type":"Feature","properties":{"stop_id":"99","stop_code":"99","stop_name":"Bayview at Mollard Court"},"geometry":{"type":"Point","coordinates":[-79.68178,44.355701]}},{"type":"Feature","properties":{"stop_id":"100","stop_code":"100","stop_name":"Bayview at Mollard "},"geometry":{"type":"Point","coordinates":[-79.681731,44.35613]}},{"type":"Feature","properties":{"stop_id":"102","stop_code":"102","stop_name":"Springhome Road"},"geometry":{"type":"Point","coordinates":[-79.684603,44.366635]}},{"type":"Feature","properties":{"stop_id":"104","stop_code":"104","stop_name":"Alliance Boulevard"},"geometry":{"type":"Point","coordinates":[-79.67910942,44.40949475]}},{"type":"Feature","properties":{"stop_id":"105","stop_code":"105","stop_name":"Alliance Boulevard"},"geometry":{"type":"Point","coordinates":[-79.67933789,44.40923713]}},{"type":"Feature","properties":{"stop_id":"106","stop_code":"106","stop_name":"Alliance Boulevard"},"geometry":{"type":"Point","coordinates":[-79.68482323,44.40730445]}},{"type":"Feature","properties":{"stop_id":"107","stop_code":"107","stop_name":"Bell Farm at St Vincent"},"geometry":{"type":"Point","coordinates":[-79.6849183,44.40744029]}},{"type":"Feature","properties":{"stop_id":"108","stop_code":"108","stop_name":"115 Bell Farm"},"geometry":{"type":"Point","coordinates":[-79.67581077,44.4107726]}},{"type":"Feature","properties":{"stop_id":"109","stop_code":"109","stop_name":"130 Bell Farm"},"geometry":{"type":"Point","coordinates":[-79.67552046,44.41104659]}},{"type":"Feature","properties":{"stop_id":"113","stop_code":"113","stop_name":"Willow Landing School"},"geometry":{"type":"Point","coordinates":[-79.6621861,44.35374366]}},{"type":"Feature","properties":{"stop_id":"114","stop_code":"114","stop_name":"Brock at Innisfil"},"geometry":{"type":"Point","coordinates":[-79.6959002,44.37632826]}},{"type":"Feature","properties":{"stop_id":"115","stop_code":"115","stop_name":"Brock at Innisfil"},"geometry":{"type":"Point","coordinates":[-79.695832,44.376459]}},{"type":"Feature","properties":{"stop_id":"116","stop_code":"116","stop_name":"Huronia Road"},"geometry":{"type":"Point","coordinates":[-79.66438248,44.35324087]}},{"type":"Feature","properties":{"stop_id":"117","stop_code":"117","stop_name":"Hurst Drive "},"geometry":{"type":"Point","coordinates":[-79.63259126,44.36057295]}},{"type":"Feature","properties":{"stop_id":"118","stop_code":"118","stop_name":"Loon Avenue"},"geometry":{"type":"Point","coordinates":[-79.65939591,44.3543867]}},{"type":"Feature","properties":{"stop_id":"119","stop_code":"119","stop_name":"Big Bay at Prince William Way"},"geometry":{"type":"Point","coordinates":[-79.61615811,44.36413117]}},{"type":"Feature","properties":{"stop_id":"120","stop_code":"120","stop_name":"Big Bay Point at Pine "},"geometry":{"type":"Point","coordinates":[-79.635556,44.359682]}},{"type":"Feature","properties":{"stop_id":"121","stop_code":"121","stop_name":"Royal Park Side Drive"},"geometry":{"type":"Point","coordinates":[-79.62251539,44.36280583]}},{"type":"Feature","properties":{"stop_id":"122","stop_code":"122","stop_name":"Big Bay at Sandringham "},"geometry":{"type":"Point","coordinates":[-79.622547,44.362622]}},{"type":"Feature","properties":{"stop_id":"124","stop_code":"124","stop_name":"Welham Road"},"geometry":{"type":"Point","coordinates":[-79.67045613,44.35102962]}},{"type":"Feature","properties":{"stop_id":"125","stop_code":"125","stop_name":"Birchwood at Stanley"},"geometry":{"type":"Point","coordinates":[-79.70094905,44.41299208]}},{"type":"Feature","properties":{"stop_id":"126","stop_code":"126","stop_name":"Springdale Drive"},"geometry":{"type":"Point","coordinates":[-79.70006724,44.41117881]}},{"type":"Feature","properties":{"stop_id":"127","stop_code":"127","stop_name":"Birchwood Drive"},"geometry":{"type":"Point","coordinates":[-79.70108215,44.412897]}},{"type":"Feature","properties":{"stop_id":"128","stop_code":"128","stop_name":"17 Blake Street"},"geometry":{"type":"Point","coordinates":[-79.67604538,44.39173259]}},{"type":"Feature","properties":{"stop_id":"129","stop_code":"129","stop_name":"Blake at Johnson"},"geometry":{"type":"Point","coordinates":[-79.65697606,44.39707766]}},{"type":"Feature","properties":{"stop_id":"131","stop_code":"131","stop_name":"Collier Street"},"geometry":{"type":"Point","coordinates":[-79.67665363,44.39166234]}},{"type":"Feature","properties":{"stop_id":"135","stop_code":"135","stop_name":"Parkview Center"},"geometry":{"type":"Point","coordinates":[-79.66558589,44.39542706]}},{"type":"Feature","properties":{"stop_id":"136","stop_code":"136","stop_name":"Parkview Center"},"geometry":{"type":"Point","coordinates":[-79.66536258,44.3952646]}},{"type":"Feature","properties":{"stop_id":"138","stop_code":"138","stop_name":"Rodney Street"},"geometry":{"type":"Point","coordinates":[-79.67066272,44.39372875]}},{"type":"Feature","properties":{"stop_id":"139","stop_code":"139","stop_name":"Rodney Street"},"geometry":{"type":"Point","coordinates":[-79.67096589,44.39346245]}},{"type":"Feature","properties":{"stop_id":"140","stop_code":"140","stop_name":"St. Vincent Street"},"geometry":{"type":"Point","coordinates":[-79.67315835,44.39286259]}},{"type":"Feature","properties":{"stop_id":"141","stop_code":"141","stop_name":"St. Vincent Street"},"geometry":{"type":"Point","coordinates":[-79.67344728,44.39260564]}},{"type":"Feature","properties":{"stop_id":"142","stop_code":"142","stop_name":"Vancouver Street"},"geometry":{"type":"Point","coordinates":[-79.66276368,44.39522509]}},{"type":"Feature","properties":{"stop_id":"143","stop_code":"143","stop_name":"Vancouver Street"},"geometry":{"type":"Point","coordinates":[-79.66309546,44.39508899]}},{"type":"Feature","properties":{"stop_id":"144","stop_code":"144","stop_name":"Barrie By the Bay Plaza"},"geometry":{"type":"Point","coordinates":[-79.69396387,44.38419889]}},{"type":"Feature","properties":{"stop_id":"146","stop_code":"146","stop_name":"Brock Street"},"geometry":{"type":"Point","coordinates":[-79.69348116,44.37720176]}},{"type":"Feature","properties":{"stop_id":"147","stop_code":"147","stop_name":"Brock Street"},"geometry":{"type":"Point","coordinates":[-79.69303282,44.37690339]}},{"type":"Feature","properties":{"stop_id":"148","stop_code":"148","stop_name":"John Street"},"geometry":{"type":"Point","coordinates":[-79.69372107,44.37990156]}},{"type":"Feature","properties":{"stop_id":"149","stop_code":"149","stop_name":"John Street"},"geometry":{"type":"Point","coordinates":[-79.69351954,44.37959209]}},{"type":"Feature","properties":{"stop_id":"150","stop_code":"150","stop_name":"Bradford at Simcoe"},"geometry":{"type":"Point","coordinates":[-79.693828,44.385598]}},{"type":"Feature","properties":{"stop_id":"151","stop_code":"151","stop_name":"Victoria Street"},"geometry":{"type":"Point","coordinates":[-79.69378391,44.38145815]}},{"type":"Feature","properties":{"stop_id":"152","stop_code":"152","stop_name":"Victoria Street"},"geometry":{"type":"Point","coordinates":[-79.69361715,44.38125324]}},{"type":"Feature","properties":{"stop_id":"154","stop_code":"154","stop_name":"Lakeshore at Centennial"},"geometry":{"type":"Point","coordinates":[-79.6900706,44.37848261]}},{"type":"Feature","properties":{"stop_id":"155","stop_code":"155","stop_name":"Lakeshore at Centennial"},"geometry":{"type":"Point","coordinates":[-79.69027601,44.37844853]}},{"type":"Feature","properties":{"stop_id":"156","stop_code":"156","stop_name":"Lakeshore at Victoria"},"geometry":{"type":"Point","coordinates":[-79.69061726,44.38190724]}},{"type":"Feature","properties":{"stop_id":"157","stop_code":"157","stop_name":"Lakeshore at Victoria"},"geometry":{"type":"Point","coordinates":[-79.69086445,44.38198198]}},{"type":"Feature","properties":{"stop_id":"158","stop_code":"158","stop_name":"Lakeshore at Simcoe"},"geometry":{"type":"Point","coordinates":[-79.69148717,44.38579465]}},{"type":"Feature","properties":{"stop_id":"159","stop_code":"159","stop_name":"Lakeshore at Marina"},"geometry":{"type":"Point","coordinates":[-79.691085,44.384954]}},{"type":"Feature","properties":{"stop_id":"161","stop_code":"161","stop_name":"Mill Road"},"geometry":{"type":"Point","coordinates":[-79.68785321,44.327047]}},{"type":"Feature","properties":{"stop_id":"162","stop_code":"162","stop_name":"Bryne Drive"},"geometry":{"type":"Point","coordinates":[-79.68724698,44.32563066]}},{"type":"Feature","properties":{"stop_id":"163","stop_code":"163","stop_name":"Burton at Bayview"},"geometry":{"type":"Point","coordinates":[-79.68556396,44.37112665]}},{"type":"Feature","properties":{"stop_id":"165","stop_code":"165","stop_name":"Burton at Bayview"},"geometry":{"type":"Point","coordinates":[-79.68436993,44.3711314]}},{"type":"Feature","properties":{"stop_id":"166","stop_code":"166","stop_name":"Garden Drive"},"geometry":{"type":"Point","coordinates":[-79.67420508,44.37077229]}},{"type":"Feature","properties":{"stop_id":"167","stop_code":"167","stop_name":"Granville Street"},"geometry":{"type":"Point","coordinates":[-79.69052443,44.3716525]}},{"type":"Feature","properties":{"stop_id":"168","stop_code":"168","stop_name":"Granville Street"},"geometry":{"type":"Point","coordinates":[-79.690533,44.371544]}},{"type":"Feature","properties":{"stop_id":"171","stop_code":"171","stop_name":"Peartree Court"},"geometry":{"type":"Point","coordinates":[-79.674817,44.371134]}},{"type":"Feature","properties":{"stop_id":"172","stop_code":"172","stop_name":"Robinson Street"},"geometry":{"type":"Point","coordinates":[-79.68079483,44.37156557]}},{"type":"Feature","properties":{"stop_id":"173","stop_code":"173","stop_name":"Robinson Street"},"geometry":{"type":"Point","coordinates":[-79.68121647,44.37139918]}},{"type":"Feature","properties":{"stop_id":"182","stop_code":"182","stop_name":"Blake at Huron"},"geometry":{"type":"Point","coordinates":[-79.65319751,44.39852193]}},{"type":"Feature","properties":{"stop_id":"183","stop_code":"183","stop_name":"Steel Street"},"geometry":{"type":"Point","coordinates":[-79.65157707,44.40074585]}},{"type":"Feature","properties":{"stop_id":"184","stop_code":"184","stop_name":"429 Blake Street"},"geometry":{"type":"Point","coordinates":[-79.650872,44.399395]}},{"type":"Feature","properties":{"stop_id":"185","stop_code":"185","stop_name":"Collier at Berczy"},"geometry":{"type":"Point","coordinates":[-79.68082588,44.39066487]}},{"type":"Feature","properties":{"stop_id":"186","stop_code":"186","stop_name":"Albert Street"},"geometry":{"type":"Point","coordinates":[-79.67958159,44.39104266]}},{"type":"Feature","properties":{"stop_id":"187","stop_code":"187","stop_name":"Collier at Clapperton "},"geometry":{"type":"Point","coordinates":[-79.69033262,44.39046905]}},{"type":"Feature","properties":{"stop_id":"188","stop_code":"188","stop_name":"Collier at Clapperton"},"geometry":{"type":"Point","coordinates":[-79.69020332,44.39030032]}},{"type":"Feature","properties":{"stop_id":"189","stop_code":"189","stop_name":"Collier at Mulcaster"},"geometry":{"type":"Point","coordinates":[-79.68509193,44.39037224]}},{"type":"Feature","properties":{"stop_id":"190","stop_code":"190","stop_name":"Collier at Mulcaster"},"geometry":{"type":"Point","coordinates":[-79.68510446,44.39053858]}},{"type":"Feature","properties":{"stop_id":"191","stop_code":"191","stop_name":"Owen Street"},"geometry":{"type":"Point","coordinates":[-79.68769966,44.39048003]}},{"type":"Feature","properties":{"stop_id":"192","stop_code":"192","stop_name":"Owen Street"},"geometry":{"type":"Point","coordinates":[-79.68751995,44.39036202]}},{"type":"Feature","properties":{"stop_id":"193","stop_code":"193","stop_name":"Poyntz Street"},"geometry":{"type":"Point","coordinates":[-79.68288564,44.39053749]}},{"type":"Feature","properties":{"stop_id":"194","stop_code":"194","stop_name":"Poyntz Street"},"geometry":{"type":"Point","coordinates":[-79.68326777,44.39042963]}},{"type":"Feature","properties":{"stop_id":"198","stop_code":"198","stop_name":"112 Commerce Park Drive"},"geometry":{"type":"Point","coordinates":[-79.68949655,44.32453901]}},{"type":"Feature","properties":{"stop_id":"199","stop_code":"199","stop_name":"121 Commerce Park Drive"},"geometry":{"type":"Point","coordinates":[-79.68975503,44.32467468]}},{"type":"Feature","properties":{"stop_id":"200","stop_code":"200","stop_name":"Norris Drive"},"geometry":{"type":"Point","coordinates":[-79.69301672,44.32395013]}},{"type":"Feature","properties":{"stop_id":"201","stop_code":"201","stop_name":"Norris Drive"},"geometry":{"type":"Point","coordinates":[-79.69352622,44.32364713]}},{"type":"Feature","properties":{"stop_id":"215","stop_code":"215","stop_name":"Cundles at J.C. Massie Way"},"geometry":{"type":"Point","coordinates":[-79.67620116,44.41633987]}},{"type":"Feature","properties":{"stop_id":"216","stop_code":"216","stop_name":"Cundles at J.C. Massie Way"},"geometry":{"type":"Point","coordinates":[-79.67614223,44.41661353]}},{"type":"Feature","properties":{"stop_id":"219","stop_code":"219","stop_name":"Janine Street"},"geometry":{"type":"Point","coordinates":[-79.695047,44.408752]}},{"type":"Feature","properties":{"stop_id":"220","stop_code":"220","stop_name":"Cundles at Bluejay"},"geometry":{"type":"Point","coordinates":[-79.692545,44.410025]}},{"type":"Feature","properties":{"stop_id":"221","stop_code":"221","stop_name":"Cundles at Daphne"},"geometry":{"type":"Point","coordinates":[-79.69102116,44.4105574]}},{"type":"Feature","properties":{"stop_id":"222","stop_code":"222","stop_name":"Lions Gate"},"geometry":{"type":"Point","coordinates":[-79.67899857,44.41600796]}},{"type":"Feature","properties":{"stop_id":"223","stop_code":"223","stop_name":"Lions Gate "},"geometry":{"type":"Point","coordinates":[-79.67919571,44.41565959]}},{"type":"Feature","properties":{"stop_id":"224","stop_code":"224","stop_name":"Cundles at Livingstone"},"geometry":{"type":"Point","coordinates":[-79.68326387,44.41389449]}},{"type":"Feature","properties":{"stop_id":"230","stop_code":"230","stop_name":"Burns Circle"},"geometry":{"type":"Point","coordinates":[-79.72676632,44.39635486]}},{"type":"Feature","properties":{"stop_id":"231","stop_code":"231","stop_name":"Burns Circle"},"geometry":{"type":"Point","coordinates":[-79.72634251,44.39612658]}},{"type":"Feature","properties":{"stop_id":"232","stop_code":"232","stop_name":"Cundles at Lillian"},"geometry":{"type":"Point","coordinates":[-79.70744886,44.40347316]}},{"type":"Feature","properties":{"stop_id":"235","stop_code":"235","stop_name":"Cundles at Kozlov"},"geometry":{"type":"Point","coordinates":[-79.706866,44.403534]}},{"type":"Feature","properties":{"stop_id":"238","stop_code":"238","stop_name":"Coleman Health Care Centre"},"geometry":{"type":"Point","coordinates":[-79.71489181,44.40075877]}},{"type":"Feature","properties":{"stop_id":"239","stop_code":"239","stop_name":"Cundles at Sunnidale"},"geometry":{"type":"Point","coordinates":[-79.71635133,44.39992761]}},{"type":"Feature","properties":{"stop_id":"240","stop_code":"240","stop_name":"Cundles at Livingstone"},"geometry":{"type":"Point","coordinates":[-79.73547487,44.39718733]}},{"type":"Feature","properties":{"stop_id":"241","stop_code":"241","stop_name":"Cundles at Livingstone"},"geometry":{"type":"Point","coordinates":[-79.73525923,44.39653309]}},{"type":"Feature","properties":{"stop_id":"242","stop_code":"242","stop_name":"Longman Drive"},"geometry":{"type":"Point","coordinates":[-79.73016723,44.39752466]}},{"type":"Feature","properties":{"stop_id":"243","stop_code":"243","stop_name":"Longman Drive"},"geometry":{"type":"Point","coordinates":[-79.73039499,44.39732265]}},{"type":"Feature","properties":{"stop_id":"244","stop_code":"244","stop_name":"Cundles at Sunnidale"},"geometry":{"type":"Point","coordinates":[-79.71692684,44.39987102]}},{"type":"Feature","properties":{"stop_id":"246","stop_code":"246","stop_name":"Emma King Elementary School"},"geometry":{"type":"Point","coordinates":[-79.73277125,44.39649]}},{"type":"Feature","properties":{"stop_id":"247","stop_code":"247","stop_name":"Emma King Elementary School"},"geometry":{"type":"Point","coordinates":[-79.73291097,44.39626026]}},{"type":"Feature","properties":{"stop_id":"248","stop_code":"248","stop_name":"Donald at Anne"},"geometry":{"type":"Point","coordinates":[-79.706561,44.384555]}},{"type":"Feature","properties":{"stop_id":"249","stop_code":"249","stop_name":"Anne Street"},"geometry":{"type":"Point","coordinates":[-79.70599285,44.38473684]}},{"type":"Feature","properties":{"stop_id":"251","stop_code":"251","stop_name":"Rose Street"},"geometry":{"type":"Point","coordinates":[-79.67389152,44.41000892]}},{"type":"Feature","properties":{"stop_id":"255","stop_code":"255","stop_name":"Duckworth at Grove"},"geometry":{"type":"Point","coordinates":[-79.674258,44.408195]}},{"type":"Feature","properties":{"stop_id":"262","stop_code":"262","stop_name":"Ferndale at Barrie Operations"},"geometry":{"type":"Point","coordinates":[-79.72257496,44.37875514]}},{"type":"Feature","properties":{"stop_id":"263","stop_code":"263","stop_name":"Ferndale at Barrie Operations"},"geometry":{"type":"Point","coordinates":[-79.72231292,44.37881972]}},{"type":"Feature","properties":{"stop_id":"265","stop_code":"265","stop_name":"Dunlop at Anne"},"geometry":{"type":"Point","coordinates":[-79.705091,44.382816]}},{"type":"Feature","properties":{"stop_id":"266","stop_code":"266","stop_name":"Dunlop at Anne"},"geometry":{"type":"Point","coordinates":[-79.70486032,44.38273646]}},{"type":"Feature","properties":{"stop_id":"268","stop_code":"268","stop_name":"Boys Street"},"geometry":{"type":"Point","coordinates":[-79.70105093,44.38456712]}},{"type":"Feature","properties":{"stop_id":"269","stop_code":"269","stop_name":"Eccles Street"},"geometry":{"type":"Point","coordinates":[-79.69882951,44.38553734]}},{"type":"Feature","properties":{"stop_id":"270","stop_code":"270","stop_name":"Eccles Street"},"geometry":{"type":"Point","coordinates":[-79.69723418,44.38605848]}},{"type":"Feature","properties":{"stop_id":"271","stop_code":"271","stop_name":"Dunlop at Ferndale"},"geometry":{"type":"Point","coordinates":[-79.71874831,44.37657224]}},{"type":"Feature","properties":{"stop_id":"272","stop_code":"272","stop_name":"Frances Street"},"geometry":{"type":"Point","coordinates":[-79.69991235,44.38488824]}},{"type":"Feature","properties":{"stop_id":"275","stop_code":"275","stop_name":"Dunlop at High Street"},"geometry":{"type":"Point","coordinates":[-79.69541341,44.38689509]}},{"type":"Feature","properties":{"stop_id":"276","stop_code":"276","stop_name":"Dunlop at Eccles"},"geometry":{"type":"Point","coordinates":[-79.6969058,44.38641516]}},{"type":"Feature","properties":{"stop_id":"277","stop_code":"277","stop_name":"Sarjeant Drive"},"geometry":{"type":"Point","coordinates":[-79.71697278,44.37733433]}},{"type":"Feature","properties":{"stop_id":"281","stop_code":"281","stop_name":"Engel Crescent"},"geometry":{"type":"Point","coordinates":[-79.71534062,44.38339257]}},{"type":"Feature","properties":{"stop_id":"282","stop_code":"282","stop_name":"Ferndale at Edgehill"},"geometry":{"type":"Point","coordinates":[-79.72377544,44.38056507]}},{"type":"Feature","properties":{"stop_id":"283","stop_code":"283","stop_name":"Edgehill at Ferndale"},"geometry":{"type":"Point","coordinates":[-79.7248207,44.38118332]}},{"type":"Feature","properties":{"stop_id":"285","stop_code":"285","stop_name":"Jagges Drive"},"geometry":{"type":"Point","coordinates":[-79.72842683,44.38053959]}},{"type":"Feature","properties":{"stop_id":"286","stop_code":"286","stop_name":"Jagges Drive"},"geometry":{"type":"Point","coordinates":[-79.72895422,44.38028247]}},{"type":"Feature","properties":{"stop_id":"288","stop_code":"288","stop_name":"Pringle at Ruffet"},"geometry":{"type":"Point","coordinates":[-79.73438782,44.37785896]}},{"type":"Feature","properties":{"stop_id":"290","stop_code":"290","stop_name":"Roberta Place"},"geometry":{"type":"Point","coordinates":[-79.70716838,44.34217844]}},{"type":"Feature","properties":{"stop_id":"291","stop_code":"291","stop_name":"Roberta Place"},"geometry":{"type":"Point","coordinates":[-79.70697499,44.34205309]}},{"type":"Feature","properties":{"stop_id":"292","stop_code":"292","stop_name":"Ecole Romeo Dallaire"},"geometry":{"type":"Point","coordinates":[-79.71595754,44.32651239]}},{"type":"Feature","properties":{"stop_id":"293","stop_code":"293","stop_name":"Essa at Anne"},"geometry":{"type":"Point","coordinates":[-79.69510843,44.36787963]}},{"type":"Feature","properties":{"stop_id":"294","stop_code":"294","stop_name":"Essa at Ardagh"},"geometry":{"type":"Point","coordinates":[-79.69860731,44.35739861]}},{"type":"Feature","properties":{"stop_id":"295","stop_code":"295","stop_name":"Beacon Road"},"geometry":{"type":"Point","coordinates":[-79.7000851,44.35114771]}},{"type":"Feature","properties":{"stop_id":"296","stop_code":"296","stop_name":"Bryne Drive"},"geometry":{"type":"Point","coordinates":[-79.69807715,44.3576689]}},{"type":"Feature","properties":{"stop_id":"298","stop_code":"298","stop_name":"Dunn Street"},"geometry":{"type":"Point","coordinates":[-79.71714327,44.32445176]}},{"type":"Feature","properties":{"stop_id":"299","stop_code":"299","stop_name":"Dyer Boulevard"},"geometry":{"type":"Point","coordinates":[-79.71738837,44.3243938]}},{"type":"Feature","properties":{"stop_id":"300","stop_code":"300","stop_name":"Essa at Fairview"},"geometry":{"type":"Point","coordinates":[-79.697384,44.364613]}},{"type":"Feature","properties":{"stop_id":"301","stop_code":"301","stop_name":"Essa at Fairview"},"geometry":{"type":"Point","coordinates":[-79.6970879,44.36420763]}},{"type":"Feature","properties":{"stop_id":"304","stop_code":"304","stop_name":"Harvie Road"},"geometry":{"type":"Point","coordinates":[-79.70590984,44.34432976]}},{"type":"Feature","properties":{"stop_id":"305","stop_code":"305","stop_name":"Harvie Road"},"geometry":{"type":"Point","coordinates":[-79.70595102,44.3438527]}},{"type":"Feature","properties":{"stop_id":"306","stop_code":"306","stop_name":"Loggers Run"},"geometry":{"type":"Point","coordinates":[-79.69942096,44.35499844]}},{"type":"Feature","properties":{"stop_id":"307","stop_code":"307","stop_name":"Loggers Run"},"geometry":{"type":"Point","coordinates":[-79.70051854,44.35096989]}},{"type":"Feature","properties":{"stop_id":"308","stop_code":"308","stop_name":"Essa at Mapleview"},"geometry":{"type":"Point","coordinates":[-79.71512091,44.32833166]}},{"type":"Feature","properties":{"stop_id":"312","stop_code":"312","stop_name":"Essa at Veteran's"},"geometry":{"type":"Point","coordinates":[-79.704667,44.346517]}},{"type":"Feature","properties":{"stop_id":"313","stop_code":"313","stop_name":"Essa at Veteran's"},"geometry":{"type":"Point","coordinates":[-79.70433311,44.34656133]}},{"type":"Feature","properties":{"stop_id":"322","stop_code":"322","stop_name":"Lewis Lane"},"geometry":{"type":"Point","coordinates":[-79.72106688,44.38611843]}},{"type":"Feature","properties":{"stop_id":"324","stop_code":"324","stop_name":"Eden Drive"},"geometry":{"type":"Point","coordinates":[-79.71933538,44.38342827]}},{"type":"Feature","properties":{"stop_id":"325","stop_code":"325","stop_name":"314 Georgian Drive"},"geometry":{"type":"Point","coordinates":[-79.65657733,44.41637423]}},{"type":"Feature","properties":{"stop_id":"326","stop_code":"326","stop_name":"322 Georgian Drive"},"geometry":{"type":"Point","coordinates":[-79.65848403,44.41640053]}},{"type":"Feature","properties":{"stop_id":"327","stop_code":"327","stop_name":"Grizzlies Way at Duckworth"},"geometry":{"type":"Point","coordinates":[-79.67280521,44.4109252]}},{"type":"Feature","properties":{"stop_id":"328","stop_code":"328","stop_name":"Grizzlies Way at Duckworth"},"geometry":{"type":"Point","coordinates":[-79.67284298,44.41069588]}},{"type":"Feature","properties":{"stop_id":"329","stop_code":"329","stop_name":"Georgian at Govenors"},"geometry":{"type":"Point","coordinates":[-79.66849331,44.41446164]}},{"type":"Feature","properties":{"stop_id":"330","stop_code":"330","stop_name":"Georgian College"},"geometry":{"type":"Point","coordinates":[-79.66913206,44.41208657]}},{"type":"Feature","properties":{"stop_id":"331","stop_code":"331","stop_name":"Georgian College"},"geometry":{"type":"Point","coordinates":[-79.66853748,44.41046144]}},{"type":"Feature","properties":{"stop_id":"332","stop_code":"332","stop_name":"Gallie Court at Quarry Ridge"},"geometry":{"type":"Point","coordinates":[-79.65918375,44.41577595]}},{"type":"Feature","properties":{"stop_id":"333","stop_code":"333","stop_name":"RVH Main Entrance"},"geometry":{"type":"Point","coordinates":[-79.65937016,44.41525158]}},{"type":"Feature","properties":{"stop_id":"335","stop_code":"335","stop_name":"Georgian College"},"geometry":{"type":"Point","coordinates":[-79.66889087,44.41037981]}},{"type":"Feature","properties":{"stop_id":"337","stop_code":"337","stop_name":"Bothwell Crescent"},"geometry":{"type":"Point","coordinates":[-79.68602289,44.40161247]}},{"type":"Feature","properties":{"stop_id":"339","stop_code":"339","stop_name":"Barrie North Collegiate"},"geometry":{"type":"Point","coordinates":[-79.68909394,44.40000377]}},{"type":"Feature","properties":{"stop_id":"340","stop_code":"340","stop_name":"Grove at Davidson"},"geometry":{"type":"Point","coordinates":[-79.68845319,44.40018354]}},{"type":"Feature","properties":{"stop_id":"343","stop_code":"343","stop_name":"Steel at Blake "},"geometry":{"type":"Point","coordinates":[-79.65181951,44.40064056]}},{"type":"Feature","properties":{"stop_id":"345","stop_code":"345","stop_name":"Maple Grove Public School"},"geometry":{"type":"Point","coordinates":[-79.67929876,44.4052615]}},{"type":"Feature","properties":{"stop_id":"347","stop_code":"347","stop_name":"Oak Street"},"geometry":{"type":"Point","coordinates":[-79.68568914,44.40178296]}},{"type":"Feature","properties":{"stop_id":"348","stop_code":"348","stop_name":"Owen Street"},"geometry":{"type":"Point","coordinates":[-79.69232901,44.3984896]}},{"type":"Feature","properties":{"stop_id":"349","stop_code":"349","stop_name":"Owen Street"},"geometry":{"type":"Point","coordinates":[-79.6930308,44.39829531]}},{"type":"Feature","properties":{"stop_id":"353","stop_code":"353","stop_name":"Grove at St. Vincent"},"geometry":{"type":"Point","coordinates":[-79.6829911,44.40362293]}},{"type":"Feature","properties":{"stop_id":"354","stop_code":"354","stop_name":"Grove at St. Vincent"},"geometry":{"type":"Point","coordinates":[-79.68287034,44.40355178]}},{"type":"Feature","properties":{"stop_id":"381","stop_code":"381","stop_name":"Adelaide Street"},"geometry":{"type":"Point","coordinates":[-79.69280688,44.36875087]}},{"type":"Feature","properties":{"stop_id":"386","stop_code":"386","stop_name":"Innisfil at Essa"},"geometry":{"type":"Point","coordinates":[-79.69299401,44.36995142]}},{"type":"Feature","properties":{"stop_id":"399","stop_code":"399","stop_name":"Johnson at Blake"},"geometry":{"type":"Point","coordinates":[-79.656562,44.397829]}},{"type":"Feature","properties":{"stop_id":"400","stop_code":"400","stop_name":"Johnson at Napier"},"geometry":{"type":"Point","coordinates":[-79.65635548,44.39796716]}},{"type":"Feature","properties":{"stop_id":"401","stop_code":"401","stop_name":"Cheltenham Road"},"geometry":{"type":"Point","coordinates":[-79.65379228,44.41169531]}},{"type":"Feature","properties":{"stop_id":"402","stop_code":"402","stop_name":"Cheltenham Road"},"geometry":{"type":"Point","coordinates":[-79.65399405,44.41152705]}},{"type":"Feature","properties":{"stop_id":"403","stop_code":"403","stop_name":"Grove at Nelson"},"geometry":{"type":"Point","coordinates":[-79.66370608,44.40601502]}},{"type":"Feature","properties":{"stop_id":"405","stop_code":"405","stop_name":"Johnson at Georgian"},"geometry":{"type":"Point","coordinates":[-79.65353099,44.41534493]}},{"type":"Feature","properties":{"stop_id":"406","stop_code":"406","stop_name":"Johnson at Georgian"},"geometry":{"type":"Point","coordinates":[-79.65333888,44.41529301]}},{"type":"Feature","properties":{"stop_id":"407","stop_code":"407","stop_name":"Johnson at Grove"},"geometry":{"type":"Point","coordinates":[-79.65513496,44.40542054]}},{"type":"Feature","properties":{"stop_id":"408","stop_code":"408","stop_name":"Nelson at Grove "},"geometry":{"type":"Point","coordinates":[-79.663423,44.405342]}},{"type":"Feature","properties":{"stop_id":"409","stop_code":"409","stop_name":"Johnson at Hickling Trail"},"geometry":{"type":"Point","coordinates":[-79.655301,44.4038]}},{"type":"Feature","properties":{"stop_id":"410","stop_code":"410","stop_name":"Johnson at Mayor"},"geometry":{"type":"Point","coordinates":[-79.654712,44.406942]}},{"type":"Feature","properties":{"stop_id":"411","stop_code":"411","stop_name":"Hickling Trail"},"geometry":{"type":"Point","coordinates":[-79.65458849,44.40830721]}},{"type":"Feature","properties":{"stop_id":"413","stop_code":"413","stop_name":"Steel Street"},"geometry":{"type":"Point","coordinates":[-79.65593611,44.40125529]}},{"type":"Feature","properties":{"stop_id":"414","stop_code":"414","stop_name":"Johnson at Steel"},"geometry":{"type":"Point","coordinates":[-79.65576974,44.40138434]}},{"type":"Feature","properties":{"stop_id":"415","stop_code":"415","stop_name":"Kozlov at Cundles"},"geometry":{"type":"Point","coordinates":[-79.70684254,44.40499142]}},{"type":"Feature","properties":{"stop_id":"416","stop_code":"416","stop_name":"Heather Street"},"geometry":{"type":"Point","coordinates":[-79.70875024,44.40678734]}},{"type":"Feature","properties":{"stop_id":"419","stop_code":"419","stop_name":"Lampman plaza"},"geometry":{"type":"Point","coordinates":[-79.72249002,44.39150367]}},{"type":"Feature","properties":{"stop_id":"421","stop_code":"421","stop_name":"Browning Trail"},"geometry":{"type":"Point","coordinates":[-79.71995757,44.3885896]}},{"type":"Feature","properties":{"stop_id":"422","stop_code":"422","stop_name":"Edgehill Drive"},"geometry":{"type":"Point","coordinates":[-79.71221396,44.38464894]}},{"type":"Feature","properties":{"stop_id":"440","stop_code":"440","stop_name":"Georgian Mall"},"geometry":{"type":"Point","coordinates":[-79.70648719,44.41066232]}},{"type":"Feature","properties":{"stop_id":"441","stop_code":"441","stop_name":"Georgian Mall"},"geometry":{"type":"Point","coordinates":[-79.70510317,44.41109415]}},{"type":"Feature","properties":{"stop_id":"443","stop_code":"443","stop_name":"Celeste Drive"},"geometry":{"type":"Point","coordinates":[-79.7010938,44.41588126]}},{"type":"Feature","properties":{"stop_id":"444","stop_code":"444","stop_name":"Margaret Drive"},"geometry":{"type":"Point","coordinates":[-79.69612789,44.41822043]}},{"type":"Feature","properties":{"stop_id":"445","stop_code":"445","stop_name":"Meyer Avenue"},"geometry":{"type":"Point","coordinates":[-79.69606761,44.41804245]}},{"type":"Feature","properties":{"stop_id":"446","stop_code":"446","stop_name":"Michael Crescent"},"geometry":{"type":"Point","coordinates":[-79.70096226,44.41611771]}},{"type":"Feature","properties":{"stop_id":"447","stop_code":"447","stop_name":"East Bayfield Community Centre"},"geometry":{"type":"Point","coordinates":[-79.70283155,44.41430522]}},{"type":"Feature","properties":{"stop_id":"448","stop_code":"448","stop_name":"Livingstone at Stanley"},"geometry":{"type":"Point","coordinates":[-79.703261,44.412615]}},{"type":"Feature","properties":{"stop_id":"449","stop_code":"449","stop_name":"Stanley Street"},"geometry":{"type":"Point","coordinates":[-79.70290207,44.41288804]}},{"type":"Feature","properties":{"stop_id":"450","stop_code":"450","stop_name":"Livingstone at Anne"},"geometry":{"type":"Point","coordinates":[-79.72361565,44.40407683]}},{"type":"Feature","properties":{"stop_id":"451","stop_code":"451","stop_name":"Livingstone at Anne"},"geometry":{"type":"Point","coordinates":[-79.72389526,44.40378993]}},{"type":"Feature","properties":{"stop_id":"452","stop_code":"452","stop_name":"Balliston Crescent"},"geometry":{"type":"Point","coordinates":[-79.72786874,44.40288702]}},{"type":"Feature","properties":{"stop_id":"453","stop_code":"453","stop_name":"Wal-Mart Plaza"},"geometry":{"type":"Point","coordinates":[-79.71030063,44.40902611]}},{"type":"Feature","properties":{"stop_id":"454","stop_code":"454","stop_name":"Wal-Mart Plaza"},"geometry":{"type":"Point","coordinates":[-79.71010882,44.40887955]}},{"type":"Feature","properties":{"stop_id":"455","stop_code":"455","stop_name":"Livingstone at  Bayfield"},"geometry":{"type":"Point","coordinates":[-79.70817312,44.40971361]}},{"type":"Feature","properties":{"stop_id":"457","stop_code":"457","stop_name":"Delaney Crescent"},"geometry":{"type":"Point","coordinates":[-79.73220591,44.39850887]}},{"type":"Feature","properties":{"stop_id":"458","stop_code":"458","stop_name":"Delaney Crescent"},"geometry":{"type":"Point","coordinates":[-79.73327138,44.3982085]}},{"type":"Feature","properties":{"stop_id":"460","stop_code":"460","stop_name":"Ford Street"},"geometry":{"type":"Point","coordinates":[-79.71931928,44.40596299]}},{"type":"Feature","properties":{"stop_id":"461","stop_code":"461","stop_name":"Ford Street"},"geometry":{"type":"Point","coordinates":[-79.71952208,44.40570289]}},{"type":"Feature","properties":{"stop_id":"462","stop_code":"462","stop_name":"Kozlov Street"},"geometry":{"type":"Point","coordinates":[-79.7124228,44.40835746]}},{"type":"Feature","properties":{"stop_id":"463","stop_code":"463","stop_name":"Kozlov Street"},"geometry":{"type":"Point","coordinates":[-79.71265922,44.40809146]}},{"type":"Feature","properties":{"stop_id":"466","stop_code":"466","stop_name":"McDougall Drive"},"geometry":{"type":"Point","coordinates":[-79.71601334,44.40743543]}},{"type":"Feature","properties":{"stop_id":"467","stop_code":"467","stop_name":"Milne Court"},"geometry":{"type":"Point","coordinates":[-79.71579552,44.407362]}},{"type":"Feature","properties":{"stop_id":"468","stop_code":"468","stop_name":"Neelands Street"},"geometry":{"type":"Point","coordinates":[-79.72606062,44.40302252]}},{"type":"Feature","properties":{"stop_id":"469","stop_code":"469","stop_name":"Livingstone at Sunnidale"},"geometry":{"type":"Point","coordinates":[-79.7292216,44.40108051]}},{"type":"Feature","properties":{"stop_id":"470","stop_code":"470","stop_name":"Livingstone at Sunnidale"},"geometry":{"type":"Point","coordinates":[-79.72902032,44.40124971]}},{"type":"Feature","properties":{"stop_id":"472","stop_code":"472","stop_name":"Lougheed at Mapleview"},"geometry":{"type":"Point","coordinates":[-79.7290948,44.32473266]}},{"type":"Feature","properties":{"stop_id":"473","stop_code":"473","stop_name":"Lougheed at Mapleview"},"geometry":{"type":"Point","coordinates":[-79.72906455,44.32504571]}},{"type":"Feature","properties":{"stop_id":"485","stop_code":"485","stop_name":"Maple at Ross"},"geometry":{"type":"Point","coordinates":[-79.69250726,44.39039984]}},{"type":"Feature","properties":{"stop_id":"486","stop_code":"486","stop_name":"Maple at Ross"},"geometry":{"type":"Point","coordinates":[-79.69253335,44.39018841]}},{"type":"Feature","properties":{"stop_id":"487","stop_code":"487","stop_name":"Peggy Hill Community Centre"},"geometry":{"type":"Point","coordinates":[-79.7171497,44.33993688]}},{"type":"Feature","properties":{"stop_id":"488","stop_code":"488","stop_name":"Peggy Hill Community Centre"},"geometry":{"type":"Point","coordinates":[-79.71668472,44.33987811]}},{"type":"Feature","properties":{"stop_id":"489","stop_code":"489","stop_name":"Saint Joan of Arc High School"},"geometry":{"type":"Point","coordinates":[-79.73412737,44.34901936]}},{"type":"Feature","properties":{"stop_id":"490","stop_code":"490","stop_name":"Saint Joan of Arc High School"},"geometry":{"type":"Point","coordinates":[-79.73426711,44.34900391]}},{"type":"Feature","properties":{"stop_id":"491","stop_code":"491","stop_name":"Batteaux Street"},"geometry":{"type":"Point","coordinates":[-79.73402398,44.3479796]}},{"type":"Feature","properties":{"stop_id":"492","stop_code":"492","stop_name":"Emms Drive"},"geometry":{"type":"Point","coordinates":[-79.71360782,44.34062273]}},{"type":"Feature","properties":{"stop_id":"493","stop_code":"493","stop_name":"Emms Drive"},"geometry":{"type":"Point","coordinates":[-79.71421573,44.34041427]}},{"type":"Feature","properties":{"stop_id":"494","stop_code":"494","stop_name":"Mapleton at Essa"},"geometry":{"type":"Point","coordinates":[-79.70998171,44.33965923]}},{"type":"Feature","properties":{"stop_id":"495","stop_code":"495","stop_name":"Mapleton at Essa"},"geometry":{"type":"Point","coordinates":[-79.71003526,44.33954493]}},{"type":"Feature","properties":{"stop_id":"497","stop_code":"497","stop_name":"Mapleton at Marsellus"},"geometry":{"type":"Point","coordinates":[-79.7204554,44.33929434]}},{"type":"Feature","properties":{"stop_id":"498","stop_code":"498","stop_name":"Oakside Court"},"geometry":{"type":"Point","coordinates":[-79.72906609,44.34083908]}},{"type":"Feature","properties":{"stop_id":"499","stop_code":"499","stop_name":"Pinecliff Crescent"},"geometry":{"type":"Point","coordinates":[-79.72988353,44.34123342]}},{"type":"Feature","properties":{"stop_id":"500","stop_code":"500","stop_name":"Silvercreek Crescent"},"geometry":{"type":"Point","coordinates":[-79.73374637,44.34769373]}},{"type":"Feature","properties":{"stop_id":"504","stop_code":"504","stop_name":"White Elm Road"},"geometry":{"type":"Point","coordinates":[-79.72473666,44.33976471]}},{"type":"Feature","properties":{"stop_id":"505","stop_code":"505","stop_name":"White Elm Road"},"geometry":{"type":"Point","coordinates":[-79.72437457,44.33952273]}},{"type":"Feature","properties":{"stop_id":"506","stop_code":"506","stop_name":"Mapleview at Park Place"},"geometry":{"type":"Point","coordinates":[-79.68058581,44.33652784]}},{"type":"Feature","properties":{"stop_id":"510","stop_code":"510","stop_name":"Mapleview at Chef"},"geometry":{"type":"Point","coordinates":[-79.62130092,44.34976224]}},{"type":"Feature","properties":{"stop_id":"511","stop_code":"511","stop_name":"Country Lane"},"geometry":{"type":"Point","coordinates":[-79.65276972,44.34285201]}},{"type":"Feature","properties":{"stop_id":"512","stop_code":"512","stop_name":"Mapleview at Huronia"},"geometry":{"type":"Point","coordinates":[-79.66145452,44.34094819]}},{"type":"Feature","properties":{"stop_id":"513","stop_code":"513","stop_name":"Mapleview at Huronia"},"geometry":{"type":"Point","coordinates":[-79.66135671,44.340719]}},{"type":"Feature","properties":{"stop_id":"516","stop_code":"516","stop_name":"430 Mapleview East"},"geometry":{"type":"Point","coordinates":[-79.64967989,44.34353873]}},{"type":"Feature","properties":{"stop_id":"518","stop_code":"518","stop_name":"Seline Crescent"},"geometry":{"type":"Point","coordinates":[-79.64845377,44.34363451]}},{"type":"Feature","properties":{"stop_id":"519","stop_code":"519","stop_name":"Stunden Lane"},"geometry":{"type":"Point","coordinates":[-79.65314658,44.34256241]}},{"type":"Feature","properties":{"stop_id":"524","stop_code":"524","stop_name":"Barrie View Drive"},"geometry":{"type":"Point","coordinates":[-79.68871764,44.33467793]}},{"type":"Feature","properties":{"stop_id":"525","stop_code":"525","stop_name":"Barrie View Drive"},"geometry":{"type":"Point","coordinates":[-79.6880176,44.3345261]}},{"type":"Feature","properties":{"stop_id":"526","stop_code":"526","stop_name":"Mapleview at Bryne"},"geometry":{"type":"Point","coordinates":[-79.69127846,44.33408353]}},{"type":"Feature","properties":{"stop_id":"527","stop_code":"527","stop_name":"Canadian Tire Plaza"},"geometry":{"type":"Point","coordinates":[-79.69292148,44.33345762]}},{"type":"Feature","properties":{"stop_id":"529","stop_code":"529","stop_name":"Bryne Drive"},"geometry":{"type":"Point","coordinates":[-79.69065068,44.33399307]}},{"type":"Feature","properties":{"stop_id":"530","stop_code":"530","stop_name":"Hollyholme Farm Road"},"geometry":{"type":"Point","coordinates":[-79.70874238,44.33016375]}},{"type":"Feature","properties":{"stop_id":"531","stop_code":"531","stop_name":"Hollyholme Farm Road"},"geometry":{"type":"Point","coordinates":[-79.70927336,44.32980473]}},{"type":"Feature","properties":{"stop_id":"533","stop_code":"533","stop_name":"Reid Drive"},"geometry":{"type":"Point","coordinates":[-79.70367789,44.33128177]}},{"type":"Feature","properties":{"stop_id":"534","stop_code":"534","stop_name":"Reid Drive"},"geometry":{"type":"Point","coordinates":[-79.70430153,44.33089332]}},{"type":"Feature","properties":{"stop_id":"536","stop_code":"536","stop_name":"120 Mapleview Drive West"},"geometry":{"type":"Point","coordinates":[-79.69586264,44.33305299]}},{"type":"Feature","properties":{"stop_id":"537","stop_code":"537","stop_name":"125 Mapleview Drive West"},"geometry":{"type":"Point","coordinates":[-79.69569553,44.33284946]}},{"type":"Feature","properties":{"stop_id":"538","stop_code":"538","stop_name":"Mapleview at Veteran's"},"geometry":{"type":"Point","coordinates":[-79.69856992,44.33243152]}},{"type":"Feature","properties":{"stop_id":"539","stop_code":"539","stop_name":"Mapleview at Veteran's"},"geometry":{"type":"Point","coordinates":[-79.69937219,44.33201262]}},{"type":"Feature","properties":{"stop_id":"540","stop_code":"540","stop_name":"Bibby Court"},"geometry":{"type":"Point","coordinates":[-79.72003714,44.33854098]}},{"type":"Feature","properties":{"stop_id":"541","stop_code":"541","stop_name":"Churchland Drive"},"geometry":{"type":"Point","coordinates":[-79.72055565,44.33385271]}},{"type":"Feature","properties":{"stop_id":"542","stop_code":"542","stop_name":"Churchland Drive"},"geometry":{"type":"Point","coordinates":[-79.72085917,44.33349211]}},{"type":"Feature","properties":{"stop_id":"543","stop_code":"543","stop_name":"Clute Cresent"},"geometry":{"type":"Point","coordinates":[-79.71954061,44.33718263]}},{"type":"Feature","properties":{"stop_id":"544","stop_code":"544","stop_name":"Downing Cresent"},"geometry":{"type":"Point","coordinates":[-79.72428821,44.33161711]}},{"type":"Feature","properties":{"stop_id":"545","stop_code":"545","stop_name":"Downing Crescent"},"geometry":{"type":"Point","coordinates":[-79.72400905,44.33163557]}},{"type":"Feature","properties":{"stop_id":"546","stop_code":"546","stop_name":"Farmstead Crescent"},"geometry":{"type":"Point","coordinates":[-79.71945808,44.33625379]}},{"type":"Feature","properties":{"stop_id":"547","stop_code":"547","stop_name":"Marsellus at Mapleton"},"geometry":{"type":"Point","coordinates":[-79.72006099,44.33921511]}},{"type":"Feature","properties":{"stop_id":"548","stop_code":"548","stop_name":"Marsellus at Mapleview"},"geometry":{"type":"Point","coordinates":[-79.72470867,44.32693573]}},{"type":"Feature","properties":{"stop_id":"550","stop_code":"550","stop_name":"Marsellus at Mapleview"},"geometry":{"type":"Point","coordinates":[-79.72481436,44.32671816]}},{"type":"Feature","properties":{"stop_id":"551","stop_code":"551","stop_name":"Sundew Drive"},"geometry":{"type":"Point","coordinates":[-79.72534005,44.32871691]}},{"type":"Feature","properties":{"stop_id":"552","stop_code":"552","stop_name":"Sundew Drive"},"geometry":{"type":"Point","coordinates":[-79.72522206,44.3287975]}},{"type":"Feature","properties":{"stop_id":"556","stop_code":"556","stop_name":"Mulcaster at Collier"},"geometry":{"type":"Point","coordinates":[-79.685422,44.391058]}},{"type":"Feature","properties":{"stop_id":"557","stop_code":"557","stop_name":"Mulcaster at Collier"},"geometry":{"type":"Point","coordinates":[-79.685633,44.391061]}},{"type":"Feature","properties":{"stop_id":"558","stop_code":"558","stop_name":"Codrington Street"},"geometry":{"type":"Point","coordinates":[-79.68554378,44.39333734]}},{"type":"Feature","properties":{"stop_id":"559","stop_code":"559","stop_name":"RVH (Atrium Entrance)"},"geometry":{"type":"Point","coordinates":[-79.663366,44.414355]}},{"type":"Feature","properties":{"stop_id":"567","stop_code":"567","stop_name":"Napier at Nelson"},"geometry":{"type":"Point","coordinates":[-79.66532138,44.39859256]}},{"type":"Feature","properties":{"stop_id":"568","stop_code":"568","stop_name":"Steel Street"},"geometry":{"type":"Point","coordinates":[-79.66402782,44.40208864]}},{"type":"Feature","properties":{"stop_id":"569","stop_code":"569","stop_name":"RVH (Emergency Entrance)"},"geometry":{"type":"Point","coordinates":[-79.663549,44.414484]}},{"type":"Feature","properties":{"stop_id":"573","stop_code":"573","stop_name":"Alva Street"},"geometry":{"type":"Point","coordinates":[-79.70730927,44.36419828]}},{"type":"Feature","properties":{"stop_id":"574","stop_code":"574","stop_name":"Alva Street"},"geometry":{"type":"Point","coordinates":[-79.70745891,44.36420057]}},{"type":"Feature","properties":{"stop_id":"575","stop_code":"575","stop_name":"Patterson at Ardagh"},"geometry":{"type":"Point","coordinates":[-79.70564801,44.35720901]}},{"type":"Feature","properties":{"stop_id":"576","stop_code":"576","stop_name":"Patterson at Ardagh"},"geometry":{"type":"Point","coordinates":[-79.70551037,44.35722262]}},{"type":"Feature","properties":{"stop_id":"577","stop_code":"577","stop_name":"Patterson Place"},"geometry":{"type":"Point","coordinates":[-79.70689989,44.36191744]}},{"type":"Feature","properties":{"stop_id":"578","stop_code":"578","stop_name":"Patterson Place"},"geometry":{"type":"Point","coordinates":[-79.70672568,44.36170278]}},{"type":"Feature","properties":{"stop_id":"579","stop_code":"579","stop_name":"Phillips Street"},"geometry":{"type":"Point","coordinates":[-79.70815659,44.36760738]}},{"type":"Feature","properties":{"stop_id":"580","stop_code":"580","stop_name":"Phillips Street"},"geometry":{"type":"Point","coordinates":[-79.70832719,44.36749753]}},{"type":"Feature","properties":{"stop_id":"581","stop_code":"581","stop_name":"Patterson at Tiffin"},"geometry":{"type":"Point","coordinates":[-79.70888486,44.36978945]}},{"type":"Feature","properties":{"stop_id":"582","stop_code":"582","stop_name":"Patterson at Tiffin"},"geometry":{"type":"Point","coordinates":[-79.70862279,44.36936283]}},{"type":"Feature","properties":{"stop_id":"583","stop_code":"583","stop_name":"Penetang at St Vincent"},"geometry":{"type":"Point","coordinates":[-79.678689,44.398664]}},{"type":"Feature","properties":{"stop_id":"584","stop_code":"584","stop_name":"Penetang at Dundonald"},"geometry":{"type":"Point","coordinates":[-79.68178941,44.39672154]}},{"type":"Feature","properties":{"stop_id":"585","stop_code":"585","stop_name":"Dundonald Street"},"geometry":{"type":"Point","coordinates":[-79.68163124,44.39663299]}},{"type":"Feature","properties":{"stop_id":"586","stop_code":"586","stop_name":"Penetang at St. Vincent"},"geometry":{"type":"Point","coordinates":[-79.67817368,44.3987596]}},{"type":"Feature","properties":{"stop_id":"587","stop_code":"587","stop_name":"Penetang at Berczy"},"geometry":{"type":"Point","coordinates":[-79.68450215,44.39488395]}},{"type":"Feature","properties":{"stop_id":"588","stop_code":"588","stop_name":"Penetang at Berczy"},"geometry":{"type":"Point","coordinates":[-79.68458371,44.39498119]}},{"type":"Feature","properties":{"stop_id":"593","stop_code":"593","stop_name":"Saint Gabriel Catholic School"},"geometry":{"type":"Point","coordinates":[-79.61162789,44.35519739]}},{"type":"Feature","properties":{"stop_id":"595","stop_code":"595","stop_name":"Prince William Way at Empire"},"geometry":{"type":"Point","coordinates":[-79.612888,44.359826]}},{"type":"Feature","properties":{"stop_id":"597","stop_code":"597","stop_name":"Mapleview at Prince William Way"},"geometry":{"type":"Point","coordinates":[-79.611357,44.35223]}},{"type":"Feature","properties":{"stop_id":"599","stop_code":"599","stop_name":"Prince William Way at Sandringham"},"geometry":{"type":"Point","coordinates":[-79.612627,44.358756]}},{"type":"Feature","properties":{"stop_id":"600","stop_code":"600","stop_name":"Sovereign's Gate"},"geometry":{"type":"Point","coordinates":[-79.61448897,44.36201245]}},{"type":"Feature","properties":{"stop_id":"601","stop_code":"601","stop_name":"Sovereign's Gate"},"geometry":{"type":"Point","coordinates":[-79.61469591,44.36196381]}},{"type":"Feature","properties":{"stop_id":"602","stop_code":"602","stop_name":"The Queensway"},"geometry":{"type":"Point","coordinates":[-79.611327,44.35490312]}},{"type":"Feature","properties":{"stop_id":"603","stop_code":"603","stop_name":"Pringle at Edgehill"},"geometry":{"type":"Point","coordinates":[-79.73431069,44.37803338]}},{"type":"Feature","properties":{"stop_id":"604","stop_code":"604","stop_name":"Pringle at Sproule"},"geometry":{"type":"Point","coordinates":[-79.7310793,44.37479916]}},{"type":"Feature","properties":{"stop_id":"606","stop_code":"606","stop_name":"Red Oak at Sundew"},"geometry":{"type":"Point","coordinates":[-79.73331616,44.32771633]}},{"type":"Feature","properties":{"stop_id":"607","stop_code":"607","stop_name":"Victoria Village"},"geometry":{"type":"Point","coordinates":[-79.69802649,44.39089524]}},{"type":"Feature","properties":{"stop_id":"608","stop_code":"608","stop_name":"Victoria Village"},"geometry":{"type":"Point","coordinates":[-79.69806293,44.39075455]}},{"type":"Feature","properties":{"stop_id":"610","stop_code":"610","stop_name":"Pringle at Sproule"},"geometry":{"type":"Point","coordinates":[-79.7312307,44.37478712]}},{"type":"Feature","properties":{"stop_id":"612","stop_code":"612","stop_name":"RVH Main Entrance"},"geometry":{"type":"Point","coordinates":[-79.66117575,44.41547898]}},{"type":"Feature","properties":{"stop_id":"617","stop_code":"617","stop_name":"Hooper Road"},"geometry":{"type":"Point","coordinates":[-79.67380008,44.33299707]}},{"type":"Feature","properties":{"stop_id":"618","stop_code":"618","stop_name":"Saunders at Welham"},"geometry":{"type":"Point","coordinates":[-79.6689847,44.33410212]}},{"type":"Feature","properties":{"stop_id":"621","stop_code":"621","stop_name":"Spingdale at Cundles"},"geometry":{"type":"Point","coordinates":[-79.696881,44.408279]}},{"type":"Feature","properties":{"stop_id":"622","stop_code":"622","stop_name":"Springdale at Cundles"},"geometry":{"type":"Point","coordinates":[-79.69693756,44.40817261]}},{"type":"Feature","properties":{"stop_id":"623","stop_code":"623","stop_name":"Deerpark Drive"},"geometry":{"type":"Point","coordinates":[-79.69871487,44.4101805]}},{"type":"Feature","properties":{"stop_id":"624","stop_code":"624","stop_name":"Springdale at Deerpark"},"geometry":{"type":"Point","coordinates":[-79.69864832,44.41029255]}},{"type":"Feature","properties":{"stop_id":"626","stop_code":"626","stop_name":"Sproule at Kraus"},"geometry":{"type":"Point","coordinates":[-79.73602517,44.37252495]}},{"type":"Feature","properties":{"stop_id":"627","stop_code":"627","stop_name":"Sproule at Kraus"},"geometry":{"type":"Point","coordinates":[-79.73537759,44.37265817]}},{"type":"Feature","properties":{"stop_id":"628","stop_code":"628","stop_name":"St Vincent at Cundles"},"geometry":{"type":"Point","coordinates":[-79.68921308,44.41205785]}},{"type":"Feature","properties":{"stop_id":"630","stop_code":"630","stop_name":"St. Vincent at Sperling"},"geometry":{"type":"Point","coordinates":[-79.687994,44.41055]}},{"type":"Feature","properties":{"stop_id":"631","stop_code":"631","stop_name":"St. Vincent at Sperling"},"geometry":{"type":"Point","coordinates":[-79.688256,44.410584]}},{"type":"Feature","properties":{"stop_id":"633","stop_code":"633","stop_name":"Osprey Ridge Road"},"geometry":{"type":"Point","coordinates":[-79.69233668,44.415684]}},{"type":"Feature","properties":{"stop_id":"634","stop_code":"634","stop_name":"Robin Court"},"geometry":{"type":"Point","coordinates":[-79.689336,44.41184]}},{"type":"Feature","properties":{"stop_id":"635","stop_code":"635","stop_name":"Rolston Drive"},"geometry":{"type":"Point","coordinates":[-79.69257459,44.41569358]}},{"type":"Feature","properties":{"stop_id":"640","stop_code":"640","stop_name":"Sundew at Red Oak"},"geometry":{"type":"Point","coordinates":[-79.7331688,44.32804617]}},{"type":"Feature","properties":{"stop_id":"641","stop_code":"641","stop_name":"204 Tiffin Street"},"geometry":{"type":"Point","coordinates":[-79.701962,44.372123]}},{"type":"Feature","properties":{"stop_id":"642","stop_code":"642","stop_name":"207 Tiffin Street"},"geometry":{"type":"Point","coordinates":[-79.7014221,44.37211017]}},{"type":"Feature","properties":{"stop_id":"645","stop_code":"645","stop_name":"Dyment Road"},"geometry":{"type":"Point","coordinates":[-79.70660779,44.37107502]}},{"type":"Feature","properties":{"stop_id":"646","stop_code":"646","stop_name":"Dyment Road"},"geometry":{"type":"Point","coordinates":[-79.70622622,44.37101971]}},{"type":"Feature","properties":{"stop_id":"647","stop_code":"647","stop_name":"Tiffin at Anne"},"geometry":{"type":"Point","coordinates":[-79.69796673,44.37306742]}},{"type":"Feature","properties":{"stop_id":"648","stop_code":"648","stop_name":"Tiffin at Anne"},"geometry":{"type":"Point","coordinates":[-79.697584,44.372957]}},{"type":"Feature","properties":{"stop_id":"651","stop_code":"651","stop_name":"Tiffin at Innisfil Street"},"geometry":{"type":"Point","coordinates":[-79.694588,44.373773]}},{"type":"Feature","properties":{"stop_id":"652","stop_code":"652","stop_name":"Innisfil Street"},"geometry":{"type":"Point","coordinates":[-79.69384999,44.3738163]}},{"type":"Feature","properties":{"stop_id":"659","stop_code":"659","stop_name":"Brookwood Drive"},"geometry":{"type":"Point","coordinates":[-79.70053342,44.33963864]}},{"type":"Feature","properties":{"stop_id":"660","stop_code":"660","stop_name":"Caplan Avenue"},"geometry":{"type":"Point","coordinates":[-79.700329,44.33712995]}},{"type":"Feature","properties":{"stop_id":"661","stop_code":"661","stop_name":"Caplan Avenue"},"geometry":{"type":"Point","coordinates":[-79.69998163,44.33678093]}},{"type":"Feature","properties":{"stop_id":"662","stop_code":"662","stop_name":"Veteran's at Essa"},"geometry":{"type":"Point","coordinates":[-79.70389522,44.34682915]}},{"type":"Feature","properties":{"stop_id":"663","stop_code":"663","stop_name":"Veteran's at Harvie"},"geometry":{"type":"Point","coordinates":[-79.70205988,44.3444851]}},{"type":"Feature","properties":{"stop_id":"664","stop_code":"664","stop_name":"Veteran's at Harvie"},"geometry":{"type":"Point","coordinates":[-79.70178892,44.34471287]}},{"type":"Feature","properties":{"stop_id":"665","stop_code":"665","stop_name":"King Street"},"geometry":{"type":"Point","coordinates":[-79.69809466,44.32943188]}},{"type":"Feature","properties":{"stop_id":"666","stop_code":"666","stop_name":"King Street"},"geometry":{"type":"Point","coordinates":[-79.69842755,44.32966122]}},{"type":"Feature","properties":{"stop_id":"667","stop_code":"667","stop_name":"Mapleton Avenue"},"geometry":{"type":"Point","coordinates":[-79.70086525,44.33988511]}},{"type":"Feature","properties":{"stop_id":"670","stop_code":"670","stop_name":"Veterans at Touchette"},"geometry":{"type":"Point","coordinates":[-79.701425,44.342022]}},{"type":"Feature","properties":{"stop_id":"671","stop_code":"671","stop_name":"Touchette Drive"},"geometry":{"type":"Point","coordinates":[-79.70118081,44.34217782]}},{"type":"Feature","properties":{"stop_id":"672","stop_code":"672","stop_name":"530 Welham"},"geometry":{"type":"Point","coordinates":[-79.67023057,44.3420197]}},{"type":"Feature","properties":{"stop_id":"674","stop_code":"674","stop_name":"Big Bay at Welham "},"geometry":{"type":"Point","coordinates":[-79.670147,44.35189]}},{"type":"Feature","properties":{"stop_id":"675","stop_code":"675","stop_name":"Churchill Drive"},"geometry":{"type":"Point","coordinates":[-79.66983149,44.3454862]}},{"type":"Feature","properties":{"stop_id":"676","stop_code":"676","stop_name":"Churchill Drive"},"geometry":{"type":"Point","coordinates":[-79.66973958,44.34545915]}},{"type":"Feature","properties":{"stop_id":"677","stop_code":"677","stop_name":"Ellis Drive"},"geometry":{"type":"Point","coordinates":[-79.669915,44.348495]}},{"type":"Feature","properties":{"stop_id":"678","stop_code":"678","stop_name":"Ellis Drive"},"geometry":{"type":"Point","coordinates":[-79.67003749,44.34842448]}},{"type":"Feature","properties":{"stop_id":"680","stop_code":"680","stop_name":"Welham at Mapleview"},"geometry":{"type":"Point","coordinates":[-79.66985936,44.33936528]}},{"type":"Feature","properties":{"stop_id":"681","stop_code":"681","stop_name":"Welham at Mapleview"},"geometry":{"type":"Point","coordinates":[-79.67000672,44.33922249]}},{"type":"Feature","properties":{"stop_id":"684","stop_code":"684","stop_name":"545 Welham "},"geometry":{"type":"Point","coordinates":[-79.67006377,44.34212927]}},{"type":"Feature","properties":{"stop_id":"695","stop_code":"695","stop_name":"Barrie Medical Arts"},"geometry":{"type":"Point","coordinates":[-79.70355348,44.38939941]}},{"type":"Feature","properties":{"stop_id":"696","stop_code":"696","stop_name":"Barrie Medical Arts"},"geometry":{"type":"Point","coordinates":[-79.70361215,44.38949485]}},{"type":"Feature","properties":{"stop_id":"699","stop_code":"699","stop_name":"Wellington Plaza"},"geometry":{"type":"Point","coordinates":[-79.70626444,44.38769346]}},{"type":"Feature","properties":{"stop_id":"700","stop_code":"700","stop_name":"Wellington Plaza"},"geometry":{"type":"Point","coordinates":[-79.70698462,44.38667327]}},{"type":"Feature","properties":{"stop_id":"704","stop_code":"704","stop_name":"Yonge at Big Bay Point"},"geometry":{"type":"Point","coordinates":[-79.646705,44.35662146]}},{"type":"Feature","properties":{"stop_id":"705","stop_code":"705","stop_name":"Yonge at Big Bay Point"},"geometry":{"type":"Point","coordinates":[-79.64697827,44.35651809]}},{"type":"Feature","properties":{"stop_id":"706","stop_code":"706","stop_name":"Mill Creek"},"geometry":{"type":"Point","coordinates":[-79.65346446,44.35967081]}},{"type":"Feature","properties":{"stop_id":"707","stop_code":"707","stop_name":"Cox Mill Road"},"geometry":{"type":"Point","coordinates":[-79.65243912,44.3589561]}},{"type":"Feature","properties":{"stop_id":"708","stop_code":"708","stop_name":"Cox Mill Road"},"geometry":{"type":"Point","coordinates":[-79.651742,44.358831]}},{"type":"Feature","properties":{"stop_id":"709","stop_code":"709","stop_name":"D'Ambrosio Drive"},"geometry":{"type":"Point","coordinates":[-79.6560055,44.36106315]}},{"type":"Feature","properties":{"stop_id":"710","stop_code":"710","stop_name":"D'Ambrosio Drive"},"geometry":{"type":"Point","coordinates":[-79.65540499,44.3608334]}},{"type":"Feature","properties":{"stop_id":"711","stop_code":"711","stop_name":"Foster Drive"},"geometry":{"type":"Point","coordinates":[-79.66626824,44.36889988]}},{"type":"Feature","properties":{"stop_id":"712","stop_code":"712","stop_name":"Foster Drive"},"geometry":{"type":"Point","coordinates":[-79.66673841,44.36896555]}},{"type":"Feature","properties":{"stop_id":"715","stop_code":"715","stop_name":"Yonge at Huronia"},"geometry":{"type":"Point","coordinates":[-79.670599,44.370509]}},{"type":"Feature","properties":{"stop_id":"716","stop_code":"716","stop_name":"Yonge at Huronia"},"geometry":{"type":"Point","coordinates":[-79.66945894,44.3700866]}},{"type":"Feature","properties":{"stop_id":"717","stop_code":"717","stop_name":"Yonge at Little"},"geometry":{"type":"Point","coordinates":[-79.66246134,44.36649642]}},{"type":"Feature","properties":{"stop_id":"718","stop_code":"718","stop_name":"Yonge at Little"},"geometry":{"type":"Point","coordinates":[-79.66255445,44.36631861]}},{"type":"Feature","properties":{"stop_id":"719","stop_code":"719","stop_name":"Barrington Residence"},"geometry":{"type":"Point","coordinates":[-79.65957671,44.3639105]}},{"type":"Feature","properties":{"stop_id":"720","stop_code":"720","stop_name":"Maclaren Avenue"},"geometry":{"type":"Point","coordinates":[-79.660047,44.364547]}},{"type":"Feature","properties":{"stop_id":"721","stop_code":"721","stop_name":"MacMillan Crescent"},"geometry":{"type":"Point","coordinates":[-79.65797763,44.36288783]}},{"type":"Feature","properties":{"stop_id":"722","stop_code":"722","stop_name":"Madelaine Drive"},"geometry":{"type":"Point","coordinates":[-79.64176327,44.35464896]}},{"type":"Feature","properties":{"stop_id":"724","stop_code":"724","stop_name":"Big Bay Plaza"},"geometry":{"type":"Point","coordinates":[-79.64462188,44.35587356]}},{"type":"Feature","properties":{"stop_id":"725","stop_code":"725","stop_name":"Barrie South GO Station"},"geometry":{"type":"Point","coordinates":[-79.62838858,44.35185862]}},{"type":"Feature","properties":{"stop_id":"736","stop_code":"736","stop_name":"North Village Way"},"geometry":{"type":"Point","coordinates":[-79.67819993,44.34150661]}},{"type":"Feature","properties":{"stop_id":"737","stop_code":"737","stop_name":"South Village Way"},"geometry":{"type":"Point","coordinates":[-79.67928743,44.33917077]}},{"type":"Feature","properties":{"stop_id":"738","stop_code":"738","stop_name":"Saunders Road"},"geometry":{"type":"Point","coordinates":[-79.6778266,44.33288834]}},{"type":"Feature","properties":{"stop_id":"741","stop_code":"741","stop_name":"Huronia Medical Clinic"},"geometry":{"type":"Point","coordinates":[-79.6637841,44.34714163]}},{"type":"Feature","properties":{"stop_id":"748","stop_code":"748","stop_name":"Baldwin at Brooks"},"geometry":{"type":"Point","coordinates":[-79.68695614,44.36786727]}},{"type":"Feature","properties":{"stop_id":"749","stop_code":"749","stop_name":"Marshall Street"},"geometry":{"type":"Point","coordinates":[-79.69004183,44.36783328]}},{"type":"Feature","properties":{"stop_id":"751","stop_code":"751","stop_name":"Big Bay Point at Huronia"},"geometry":{"type":"Point","coordinates":[-79.66451424,44.35333941]}},{"type":"Feature","properties":{"stop_id":"752","stop_code":"752","stop_name":"Huronia Medical Clinic"},"geometry":{"type":"Point","coordinates":[-79.66391904,44.34749335]}},{"type":"Feature","properties":{"stop_id":"756","stop_code":"756","stop_name":"Hooper Road"},"geometry":{"type":"Point","coordinates":[-79.67365255,44.33312923]}},{"type":"Feature","properties":{"stop_id":"757","stop_code":"757","stop_name":"Saunders at Bayview"},"geometry":{"type":"Point","coordinates":[-79.67729778,44.332292]}},{"type":"Feature","properties":{"stop_id":"765","stop_code":"765","stop_name":"Big Bay Point at Yonge "},"geometry":{"type":"Point","coordinates":[-79.64859841,44.35679551]}},{"type":"Feature","properties":{"stop_id":"774","stop_code":"774","stop_name":"Yonge and Big Bay Point "},"geometry":{"type":"Point","coordinates":[-79.64899136,44.3569028]}},{"type":"Feature","properties":{"stop_id":"777","stop_code":"777","stop_name":"Park Place"},"geometry":{"type":"Point","coordinates":[-79.68032625,44.34039063]}},{"type":"Feature","properties":{"stop_id":"782","stop_code":"782","stop_name":"Country Lane"},"geometry":{"type":"Point","coordinates":[-79.63273005,44.35162742]}},{"type":"Feature","properties":{"stop_id":"783","stop_code":"783","stop_name":"Esther Drive"},"geometry":{"type":"Point","coordinates":[-79.63584556,44.35275154]}},{"type":"Feature","properties":{"stop_id":"784","stop_code":"784","stop_name":"Yonge at Ashford"},"geometry":{"type":"Point","coordinates":[-79.640712,44.354506]}},{"type":"Feature","properties":{"stop_id":"787","stop_code":"787","stop_name":"Lally at Gateway"},"geometry":{"type":"Point","coordinates":[-79.614675,44.348353]}},{"type":"Feature","properties":{"stop_id":"800","stop_code":"800","stop_name":"Esther Drive"},"geometry":{"type":"Point","coordinates":[-79.63652178,44.35279936]}},{"type":"Feature","properties":{"stop_id":"801","stop_code":"801","stop_name":"Country Lane"},"geometry":{"type":"Point","coordinates":[-79.63343444,44.35168136]}},{"type":"Feature","properties":{"stop_id":"802","stop_code":"802","stop_name":"Grand Forest Drive"},"geometry":{"type":"Point","coordinates":[-79.63577616,44.35985924]}},{"type":"Feature","properties":{"stop_id":"817","stop_code":"817","stop_name":"Burton Avenue"},"geometry":{"type":"Point","coordinates":[-79.69247116,44.37133711]}},{"type":"Feature","properties":{"stop_id":"818","stop_code":"818","stop_name":"Burton Avenue"},"geometry":{"type":"Point","coordinates":[-79.69262803,44.37143565]}},{"type":"Feature","properties":{"stop_id":"822","stop_code":"822","stop_name":"Pine Drive"},"geometry":{"type":"Point","coordinates":[-79.63157874,44.36058315]}},{"type":"Feature","properties":{"stop_id":"826","stop_code":"826","stop_name":"Hawthorne Crescent"},"geometry":{"type":"Point","coordinates":[-79.711339,44.350161]}},{"type":"Feature","properties":{"stop_id":"827","stop_code":"827","stop_name":"Wildwood Trail"},"geometry":{"type":"Point","coordinates":[-79.71363959,44.35190209]}},{"type":"Feature","properties":{"stop_id":"828","stop_code":"828","stop_name":"Ferndale at Ardagh"},"geometry":{"type":"Point","coordinates":[-79.714754,44.355333]}},{"type":"Feature","properties":{"stop_id":"829","stop_code":"829","stop_name":"Cuthbert Street"},"geometry":{"type":"Point","coordinates":[-79.7152786,44.35732942]}},{"type":"Feature","properties":{"stop_id":"830","stop_code":"830","stop_name":"Bishop Drive"},"geometry":{"type":"Point","coordinates":[-79.71530502,44.36103958]}},{"type":"Feature","properties":{"stop_id":"831","stop_code":"831","stop_name":"Manhattan Homes"},"geometry":{"type":"Point","coordinates":[-79.713236,44.366088]}},{"type":"Feature","properties":{"stop_id":"832","stop_code":"832","stop_name":"Big Bay Point at Fairview"},"geometry":{"type":"Point","coordinates":[-79.685384,44.349134]}},{"type":"Feature","properties":{"stop_id":"833","stop_code":"833","stop_name":"Big Bay Point at Fairview"},"geometry":{"type":"Point","coordinates":[-79.683827,44.348947]}},{"type":"Feature","properties":{"stop_id":"834","stop_code":"834","stop_name":"Miller at Dunlop"},"geometry":{"type":"Point","coordinates":[-79.73241627,44.36623804]}},{"type":"Feature","properties":{"stop_id":"835","stop_code":"835","stop_name":"Miller at Dunlop"},"geometry":{"type":"Point","coordinates":[-79.73230094,44.3664094]}},{"type":"Feature","properties":{"stop_id":"836","stop_code":"836","stop_name":"Tiffin at Ferndale"},"geometry":{"type":"Point","coordinates":[-79.71495209,44.36921825]}},{"type":"Feature","properties":{"stop_id":"837","stop_code":"837","stop_name":"Ferndale at Tiffin"},"geometry":{"type":"Point","coordinates":[-79.71442665,44.36880968]}},{"type":"Feature","properties":{"stop_id":"839","stop_code":"839","stop_name":"Manhattan Homes"},"geometry":{"type":"Point","coordinates":[-79.71350651,44.36601375]}},{"type":"Feature","properties":{"stop_id":"840","stop_code":"840","stop_name":"Bishop Drive"},"geometry":{"type":"Point","coordinates":[-79.71551185,44.36128835]}},{"type":"Feature","properties":{"stop_id":"841","stop_code":"841","stop_name":"Ferndale Woods Public School"},"geometry":{"type":"Point","coordinates":[-79.715637,44.358115]}},{"type":"Feature","properties":{"stop_id":"842","stop_code":"842","stop_name":"Ferndale at Ardagh"},"geometry":{"type":"Point","coordinates":[-79.71493634,44.3551172]}},{"type":"Feature","properties":{"stop_id":"843","stop_code":"843","stop_name":"Hawthorne and Wildwood"},"geometry":{"type":"Point","coordinates":[-79.71402112,44.35219286]}},{"type":"Feature","properties":{"stop_id":"844","stop_code":"844","stop_name":"Hawthorne Crescent"},"geometry":{"type":"Point","coordinates":[-79.711673,44.350153]}},{"type":"Feature","properties":{"stop_id":"846","stop_code":"846","stop_name":"Stroud Place"},"geometry":{"type":"Point","coordinates":[-79.70631313,44.34750067]}},{"type":"Feature","properties":{"stop_id":"847","stop_code":"847","stop_name":"Veteran's at Essa"},"geometry":{"type":"Point","coordinates":[-79.70407,44.34671732]}},{"type":"Feature","properties":{"stop_id":"848","stop_code":"848","stop_name":"506 Bryne Drive"},"geometry":{"type":"Point","coordinates":[-79.6894192,44.33187138]}},{"type":"Feature","properties":{"stop_id":"849","stop_code":"849","stop_name":"505 Bryne Drive"},"geometry":{"type":"Point","coordinates":[-79.68939828,44.33210072]}},{"type":"Feature","properties":{"stop_id":"850","stop_code":"850","stop_name":"Commerce Park Drive "},"geometry":{"type":"Point","coordinates":[-79.68860769,44.32994023]}},{"type":"Feature","properties":{"stop_id":"851","stop_code":"851","stop_name":"Mills Road"},"geometry":{"type":"Point","coordinates":[-79.68813661,44.32725928]}},{"type":"Feature","properties":{"stop_id":"852","stop_code":"852","stop_name":"Commerce Park Drive"},"geometry":{"type":"Point","coordinates":[-79.6872821,44.3253194]}},{"type":"Feature","properties":{"stop_id":"853","stop_code":"853","stop_name":"Essa Road"},"geometry":{"type":"Point","coordinates":[-79.71319544,44.32921574]}},{"type":"Feature","properties":{"stop_id":"855","stop_code":"855","stop_name":"Coughlin Road"},"geometry":{"type":"Point","coordinates":[-79.70991124,44.33691527]}},{"type":"Feature","properties":{"stop_id":"867","stop_code":"867","stop_name":"Barrie View Drive"},"geometry":{"type":"Point","coordinates":[-79.68719109,44.33502682]}},{"type":"Feature","properties":{"stop_id":"868","stop_code":"868","stop_name":"Coughlin Road"},"geometry":{"type":"Point","coordinates":[-79.71018188,44.33700717]}},{"type":"Feature","properties":{"stop_id":"870","stop_code":"870","stop_name":"Mapleview at Essa"},"geometry":{"type":"Point","coordinates":[-79.713514,44.328896]}},{"type":"Feature","properties":{"stop_id":"871","stop_code":"871","stop_name":"Bryne at Commerce Park"},"geometry":{"type":"Point","coordinates":[-79.688396,44.330246]}},{"type":"Feature","properties":{"stop_id":"873","stop_code":"873","stop_name":"Anne Street"},"geometry":{"type":"Point","coordinates":[-79.69473858,44.3681091]}},{"type":"Feature","properties":{"stop_id":"878","stop_code":"878","stop_name":"Leggott Avenue"},"geometry":{"type":"Point","coordinates":[-79.65882362,44.35471567]}},{"type":"Feature","properties":{"stop_id":"879","stop_code":"879","stop_name":"Willow Landing School"},"geometry":{"type":"Point","coordinates":[-79.66165791,44.35403734]}},{"type":"Feature","properties":{"stop_id":"890","stop_code":"890","stop_name":"Edgehill at Fox Run"},"geometry":{"type":"Point","coordinates":[-79.71819397,44.38273996]}},{"type":"Feature","properties":{"stop_id":"891","stop_code":"891","stop_name":"Engel Crescent"},"geometry":{"type":"Point","coordinates":[-79.71526005,44.38330295]}},{"type":"Feature","properties":{"stop_id":"893","stop_code":"893","stop_name":"Ferndale Drive"},"geometry":{"type":"Point","coordinates":[-79.719061,44.376627]}},{"type":"Feature","properties":{"stop_id":"894","stop_code":"894","stop_name":"Edgehill Drive"},"geometry":{"type":"Point","coordinates":[-79.70949529,44.38681882]}},{"type":"Feature","properties":{"stop_id":"895","stop_code":"895","stop_name":"Leacock Drive"},"geometry":{"type":"Point","coordinates":[-79.71186572,44.38493693]}},{"type":"Feature","properties":{"stop_id":"897","stop_code":"897","stop_name":"Fox Run & Leacock Drive"},"geometry":{"type":"Point","coordinates":[-79.71917122,44.38753486]}},{"type":"Feature","properties":{"stop_id":"898","stop_code":"898","stop_name":"Letitia Street"},"geometry":{"type":"Point","coordinates":[-79.72088082,44.38991961]}},{"type":"Feature","properties":{"stop_id":"899","stop_code":"899","stop_name":"Leacock at Frost"},"geometry":{"type":"Point","coordinates":[-79.7226158,44.39255316]}},{"type":"Feature","properties":{"stop_id":"901","stop_code":"901","stop_name":"Gloria Street"},"geometry":{"type":"Point","coordinates":[-79.71133586,44.40735307]}},{"type":"Feature","properties":{"stop_id":"911","stop_code":"911","stop_name":"Lions Gate Centre"},"geometry":{"type":"Point","coordinates":[-79.65339412,44.39859656]}},{"type":"Feature","properties":{"stop_id":"912","stop_code":"912","stop_name":"Gloria Street"},"geometry":{"type":"Point","coordinates":[-79.71163434,44.40734596]}},{"type":"Feature","properties":{"stop_id":"913","stop_code":"913","stop_name":"Heather Street"},"geometry":{"type":"Point","coordinates":[-79.70874205,44.4066849]}},{"type":"Feature","properties":{"stop_id":"914","stop_code":"914","stop_name":"Kozlov at Cundles"},"geometry":{"type":"Point","coordinates":[-79.70689529,44.40489571]}},{"type":"Feature","properties":{"stop_id":"915","stop_code":"915","stop_name":"Leacock Drive"},"geometry":{"type":"Point","coordinates":[-79.72366027,44.39607969]}},{"type":"Feature","properties":{"stop_id":"916","stop_code":"916","stop_name":"Browning Trail"},"geometry":{"type":"Point","coordinates":[-79.72285376,44.39370228]}},{"type":"Feature","properties":{"stop_id":"921","stop_code":"921","stop_name":"Path to Browning Trail"},"geometry":{"type":"Point","coordinates":[-79.72086836,44.38656933]}},{"type":"Feature","properties":{"stop_id":"922","stop_code":"922","stop_name":"Fox at Moore"},"geometry":{"type":"Point","coordinates":[-79.722005,44.385027]}},{"type":"Feature","properties":{"stop_id":"925","stop_code":"925","stop_name":"Edgehill at Anne"},"geometry":{"type":"Point","coordinates":[-79.70931,44.38637]}},{"type":"Feature","properties":{"stop_id":"926","stop_code":"926","stop_name":"Marjoy Avenue"},"geometry":{"type":"Point","coordinates":[-79.6902143,44.42020676]}},{"type":"Feature","properties":{"stop_id":"927","stop_code":"927","stop_name":"Osprey Ridge Road "},"geometry":{"type":"Point","coordinates":[-79.686737,44.416625]}},{"type":"Feature","properties":{"stop_id":"928","stop_code":"928","stop_name":"Osprey Ridge Road "},"geometry":{"type":"Point","coordinates":[-79.686628,44.416756]}},{"type":"Feature","properties":{"stop_id":"929","stop_code":"929","stop_name":"Marjoy Avenue"},"geometry":{"type":"Point","coordinates":[-79.68977918,44.42018615]}},{"type":"Feature","properties":{"stop_id":"931","stop_code":"931","stop_name":"Welham at Hooper"},"geometry":{"type":"Point","coordinates":[-79.66908928,44.33626456]}},{"type":"Feature","properties":{"stop_id":"932","stop_code":"932","stop_name":"Hooper Road"},"geometry":{"type":"Point","coordinates":[-79.66942321,44.33673653]}},{"type":"Feature","properties":{"stop_id":"933","stop_code":"933","stop_name":"Saunders at Welham"},"geometry":{"type":"Point","coordinates":[-79.66897044,44.33425172]}},{"type":"Feature","properties":{"stop_id":"934","stop_code":"934","stop_name":"Sarjeant Drive"},"geometry":{"type":"Point","coordinates":[-79.71653098,44.37774514]}},{"type":"Feature","properties":{"stop_id":"936","stop_code":"936","stop_name":"Cook Street"},"geometry":{"type":"Point","coordinates":[-79.66985894,44.3990089]}},{"type":"Feature","properties":{"stop_id":"937","stop_code":"937","stop_name":"229 Grove"},"geometry":{"type":"Point","coordinates":[-79.67984615,44.40487694]}},{"type":"Feature","properties":{"stop_id":"938","stop_code":"938","stop_name":"Grove at Duckworth "},"geometry":{"type":"Point","coordinates":[-79.67364089,44.40700601]}},{"type":"Feature","properties":{"stop_id":"939","stop_code":"939","stop_name":"Grove at Cook Street "},"geometry":{"type":"Point","coordinates":[-79.66909148,44.40657586]}},{"type":"Feature","properties":{"stop_id":"940","stop_code":"940","stop_name":"Grove at Cook  "},"geometry":{"type":"Point","coordinates":[-79.66821308,44.40657885]}},{"type":"Feature","properties":{"stop_id":"941","stop_code":"941","stop_name":"Grove at Cook"},"geometry":{"type":"Point","coordinates":[-79.66827591,44.40646044]}},{"type":"Feature","properties":{"stop_id":"942","stop_code":"942","stop_name":"Nelson at Steel "},"geometry":{"type":"Point","coordinates":[-79.66421575,44.40207507]}},{"type":"Feature","properties":{"stop_id":"943","stop_code":"943","stop_name":"Nelson at Napier"},"geometry":{"type":"Point","coordinates":[-79.66486571,44.39873054]}},{"type":"Feature","properties":{"stop_id":"944","stop_code":"944","stop_name":"Napier at Rodney"},"geometry":{"type":"Point","coordinates":[-79.67334979,44.39943294]}},{"type":"Feature","properties":{"stop_id":"946","stop_code":"946","stop_name":"Mulcaster at Codrington"},"geometry":{"type":"Point","coordinates":[-79.685739,44.393088]}},{"type":"Feature","properties":{"stop_id":"947","stop_code":"947","stop_name":"Cundles Road"},"geometry":{"type":"Point","coordinates":[-79.72350518,44.39616283]}},{"type":"Feature","properties":{"stop_id":"950","stop_code":"950","stop_name":"Livingstone Street East"},"geometry":{"type":"Point","coordinates":[-79.683365,44.414121]}},{"type":"Feature","properties":{"stop_id":"953","stop_code":"953","stop_name":"Yonge at Mapleview"},"geometry":{"type":"Point","coordinates":[-79.62776586,44.34872627]}},{"type":"Feature","properties":{"stop_id":"954","stop_code":"954","stop_name":"Yonge at Mapleview"},"geometry":{"type":"Point","coordinates":[-79.628225,44.349404]}},{"type":"Feature","properties":{"stop_id":"955","stop_code":"955","stop_name":"Goodwin Drive"},"geometry":{"type":"Point","coordinates":[-79.63144988,44.34762231]}},{"type":"Feature","properties":{"stop_id":"956","stop_code":"956","stop_name":"Mapleview at Dean"},"geometry":{"type":"Point","coordinates":[-79.636806,44.346424]}},{"type":"Feature","properties":{"stop_id":"957","stop_code":"957","stop_name":"Madelaine Drive"},"geometry":{"type":"Point","coordinates":[-79.64324326,44.34498357]}},{"type":"Feature","properties":{"stop_id":"959","stop_code":"959","stop_name":"Johnson at Indian Arrow Road"},"geometry":{"type":"Point","coordinates":[-79.65679556,44.39634709]}},{"type":"Feature","properties":{"stop_id":"965","stop_code":"965","stop_name":"Madelaine Drive"},"geometry":{"type":"Point","coordinates":[-79.64380291,44.34464199]}},{"type":"Feature","properties":{"stop_id":"966","stop_code":"966","stop_name":"Mapleview at Greer"},"geometry":{"type":"Point","coordinates":[-79.63660804,44.34628352]}},{"type":"Feature","properties":{"stop_id":"967","stop_code":"967","stop_name":"Goodwin Drive"},"geometry":{"type":"Point","coordinates":[-79.63193984,44.34733971]}},{"type":"Feature","properties":{"stop_id":"968","stop_code":"968","stop_name":"Barrie Primary Care Centre"},"geometry":{"type":"Point","coordinates":[-79.67911743,44.34727521]}},{"type":"Feature","properties":{"stop_id":"969","stop_code":"969","stop_name":"Barrie Primary Care Centre"},"geometry":{"type":"Point","coordinates":[-79.67959,44.3480153]}},{"type":"Feature","properties":{"stop_id":"971","stop_code":"971","stop_name":"Ashford Drive "},"geometry":{"type":"Point","coordinates":[-79.64179895,44.35831964]}},{"type":"Feature","properties":{"stop_id":"972","stop_code":"972","stop_name":"Big Bay Point at Dodson"},"geometry":{"type":"Point","coordinates":[-79.6412,44.35865611]}},{"type":"Feature","properties":{"stop_id":"982","stop_code":"982","stop_name":"47 Churchhill Dr"},"geometry":{"type":"Point","coordinates":[-79.67415489,44.34430193]}},{"type":"Feature","properties":{"stop_id":"983","stop_code":"983","stop_name":"Loggers Run"},"geometry":{"type":"Point","coordinates":[-79.69921572,44.35488175]}},{"type":"Feature","properties":{"stop_id":"984","stop_code":"984","stop_name":"Bayview at Mapleview"},"geometry":{"type":"Point","coordinates":[-79.67864874,44.33590756]}},{"type":"Feature","properties":{"stop_id":"987","stop_code":"987","stop_name":"40 Churchill"},"geometry":{"type":"Point","coordinates":[-79.67413559,44.34444342]}},{"type":"Feature","properties":{"stop_id":"1000","stop_code":"1000","stop_name":"Layover"},"geometry":{"type":"Point","coordinates":[-79.615745,44.35015]}},{"type":"Feature","properties":{"stop_id":"1001","stop_code":"1001","stop_name":"Lakeshore at Minets"},"geometry":{"type":"Point","coordinates":[-79.670325,44.372849]}},{"type":"Feature","properties":{"stop_id":"1002","stop_code":"1002","stop_name":"Lakeshore at Southshore"},"geometry":{"type":"Point","coordinates":[-79.680875,44.373595]}},{"type":"Feature","properties":{"stop_id":"1003","stop_code":"1003","stop_name":"Allandale Waterfront Station"},"geometry":{"type":"Point","coordinates":[-79.684937,44.374067]}},{"type":"Feature","properties":{"stop_id":"1015","stop_code":"1015","stop_name":"Clapperton at H-Block"},"geometry":{"type":"Point","coordinates":[-79.690008,44.391743]}},{"type":"Feature","properties":{"stop_id":"1016","stop_code":"1016","stop_name":"Bayfield at Simcoe"},"geometry":{"type":"Point","coordinates":[-79.689311,44.38806]}},{"type":"Feature","properties":{"stop_id":"1018","stop_code":"1018","stop_name":"Burton at Huronia"},"geometry":{"type":"Point","coordinates":[-79.670242,44.370233]}},{"type":"Feature","properties":{"stop_id":"1020","stop_code":"1020","stop_name":"Bayview at Burton"},"geometry":{"type":"Point","coordinates":[-79.685095,44.370866]}},{"type":"Feature","properties":{"stop_id":"1021","stop_code":"1021","stop_name":"Bayview at Little"},"geometry":{"type":"Point","coordinates":[-79.683436,44.361532]}},{"type":"Feature","properties":{"stop_id":"5960","stop_code":"5960","stop_name":"Prince William at Mapleview"},"geometry":{"type":"Point","coordinates":[-79.610514,44.352003]}},{"type":"Feature","properties":{"stop_id":"7250","stop_code":"7250","stop_name":"Yonge at Barrie South GO"},"geometry":{"type":"Point","coordinates":[-79.629634,44.35004]}},{"type":"Feature","properties":{"stop_id":"9003","stop_code":"9003","stop_name":"Barrie Allandale Transit Terminal Platform 3"},"geometry":{"type":"Point","coordinates":[-79.68935157,44.37387314]}},{"type":"Feature","properties":{"stop_id":"9004","stop_code":"9004","stop_name":"Barrie Allandale Transit Terminal Platform 4"},"geometry":{"type":"Point","coordinates":[-79.68954018,44.37389923]}},{"type":"Feature","properties":{"stop_id":"9005","stop_code":"9005","stop_name":"Barrie Allandale Transit Terminal Platform 5"},"geometry":{"type":"Point","coordinates":[-79.68975312,44.37392532]}},{"type":"Feature","properties":{"stop_id":"9006","stop_code":"9006","stop_name":"Barrie Allandale Transit Terminal Platform 6"},"geometry":{"type":"Point","coordinates":[-79.68968991,44.3742472]}},{"type":"Feature","properties":{"stop_id":"9012","stop_code":"9012","stop_name":"Barrie Allandale Transit Terminal Platform 12"},"geometry":{"type":"Point","coordinates":[-79.69040549,44.3742136]}},{"type":"Feature","properties":{"stop_id":"9013","stop_code":"9013","stop_name":"Barrie Allandale Transit Terminal Platform 13"},"geometry":{"type":"Point","coordinates":[-79.69044205,44.3741352]}},{"type":"Feature","properties":{"stop_id":"Barrie Allandale Transit Terminal","stop_code":"Barrie Allandale Transit Terminal","stop_name":"Barrie Allandale Transit Terminal"},"geometry":{"type":"Point","coordinates":[-79.690216,44.374029]}}]}